{"type":"Topology","objects":{"setores":{"type":"GeometryCollection","geometries":[{"type":"Polygon","arcs":[[0,1,2,3,4,5,6,7,8]],"properties":{"setor":"12209"}},{"type":"Polygon","arcs":[[-7,9,10,11,12,13]],"properties":{"setor":"12210"}},{"type":"Polygon","arcs":[[14,15,16,17,18,19,20,21,22,-1,23]],"properties":{"setor":"12211"}},{"type":"MultiPolygon","arcs":[[[24,25,26,27,-22]],[[28,29,30,-18,31,-16,32,33,34]],[[35,36,37,38]]],"properties":{"setor":"12212"}},{"type":"MultiPolygon","arcs":[[[39,40,41,42,43,44]],[[45,46,-38,47,48,49,50,-20,51,-30,52,-35,53,-33,-15,54,55,56]]],"properties":{"setor":"12213"}},{"type":"Polygon","arcs":[[57,58,59,60,61,62,-48,-37,63,64,65,66,-56,67,68]],"properties":{"setor":"12214"}},{"type":"Polygon","arcs":[[69,-11,70,-5,71,72,73,74,75,76,77,78]],"properties":{"setor":"12215"}},{"type":"Polygon","arcs":[[79,80,81]],"properties":{"setor":"12216"}},{"type":"Polygon","arcs":[[82,83,84,85,86,87,88,89,90,-73,91,-3]],"properties":{"setor":"12220"}},{"type":"MultiPolygon","arcs":[[[92,-44,93,94,95]],[[96,97,98,99,100,101,-87,102,-85]]],"properties":{"setor":"12221"}},{"type":"Polygon","arcs":[[-89,103,104,105,106,107,108,109]],"properties":{"setor":"12223"}},{"type":"Polygon","arcs":[[-100,110,111,112,113,114,115,-107,116,117]],"properties":{"setor":"12224"}},{"type":"MultiPolygon","arcs":[[[-115,118,119,120,121,122,123,124]],[[125,126,127]]],"properties":{"setor":"12225"}},{"type":"MultiPolygon","arcs":[[[128,129,130,-124,131,-122,132,133,134,135,136,137]],[[138,-45,139,-98,-27]],[[140,-25,-21,-51]]],"properties":{"setor":"12226"}},{"type":"MultiPolygon","arcs":[[[141,-75,142,143,144,-129,145,146,147,148,149,150,151,152]],[[153,-41,154,-61]],[[-59,155,156]]],"properties":{"setor":"12227"}},{"type":"Polygon","arcs":[[157,-147,158,-138,159,-136,160,161,162,-126,163,164]],"properties":{"setor":"12228"}},{"type":"Polygon","arcs":[[165,166,-164,-128,167,168,169]],"properties":{"setor":"12229"}},{"type":"Polygon","arcs":[[170,171,172,173,174,175,176,177,178]],"properties":{"setor":"12230"}},{"type":"Polygon","arcs":[[179,180,181,-77,182,183,184,-151,185,-149,186,187,-174,188,-172,189]],"properties":{"setor":"12231"}},{"type":"MultiPolygon","arcs":[[[-134,190,191]],[[192,193,194,-187,195,-165,-167,196,-170,197,198,199]]],"properties":{"setor":"12232"}},{"type":"Polygon","arcs":[[200,-175,201,-195,202,203,204,205,206]],"properties":{"setor":"12233"}},{"type":"Polygon","arcs":[[207,208,-199,209,210]],"properties":{"setor":"12234"}},{"type":"Polygon","arcs":[[211,212,213,214,215,216,217,218,-177,219,220,221]],"properties":{"setor":"12235"}},{"type":"Polygon","arcs":[[222,223,-221,-207,224,225,226,227,228]],"properties":{"setor":"12236"}},{"type":"Polygon","arcs":[[229,230,231,-215,232,-213,233,234,235,236,237]],"properties":{"setor":"12237"}},{"type":"Polygon","arcs":[[238,239,-238,240,-236,241,-223,242,243,244,245]],"properties":{"setor":"12238"}},{"type":"MultiPolygon","arcs":[[[246]],[[-245,247,248,-228,249,250,-193,251,-208,252]]],"properties":{"setor":"12239"}},{"type":"Polygon","arcs":[[253,254,255,256,-231,257,258,259]],"properties":{"setor":"12240"}},{"type":"MultiPolygon","arcs":[[[260,261]],[[-108,-116,-125,-131]],[[262,263,-259,264,-239,265]]],"properties":{"setor":"12241"}},{"type":"Polygon","arcs":[[266,267,268,269,270,271,272,273,274,275,-255]],"properties":{"setor":"12242"}},{"type":"Polygon","arcs":[[276,-270,277,278,279,280,-272]],"properties":{"setor":"12243"}},{"type":"Polygon","arcs":[[-68,-55,281,-267,-254,-263,282]],"properties":{"setor":"12244"}},{"type":"Polygon","arcs":[[283,-13,284,-79,285,-181,286,287,-279,288]],"properties":{"setor":"12245"}},{"type":"Polygon","arcs":[[-276,289,-274,290,-180,291,292,-217,293,-256]],"properties":{"setor":"12246"}},{"type":"MultiPolygon","arcs":[[[294,-96,295,-94,-43,296,297,-262,298,299,300,301,302,-111,-99]],[[-50,-62,-155,-40,-139,-26,-141]],[[303,-65,304,-36,-46]]],"properties":{"setor":"12247"}},{"type":"Polygon","arcs":[[-303,305,306,-300,307,-120,308,-113,309]],"properties":{"setor":"12248"}},{"type":"Polygon","arcs":[[310,311,-82,312,-156,-58]],"properties":{"setor":"12249"}}]}},"arcs":[[[53074,25720],[2706,1696],[479,-32],[1568,548]],[[57827,27932],[3698,2556]],[[61525,30488],[603,-3416]],[[62128,27072],[-662,-1048],[-539,6]],[[60927,26030],[-173,347],[-802,36],[181,-538]],[[60133,25875],[-336,-344]],[[59797,25531],[-293,605],[-846,-224],[-965,200],[-872,-414],[168,-334],[-406,-286],[-1817,-120]],[[54766,24958],[-1390,444]],[[53376,25402],[-302,318]],[[59797,25531],[-228,-114]],[[59569,25417],[-132,-912],[-1002,-330],[-489,-518]],[[57946,23657],[-564,308]],[[57382,23965],[23,538],[-225,76],[-80,-363]],[[57100,24216],[-2334,742]],[[52401,26311],[561,1146],[-496,1423]],[[52466,28880],[220,365],[1635,-90]],[[54321,29155],[246,473],[-161,234],[-709,-34]],[[53697,29828],[748,367],[-1159,301]],[[53286,30496],[62,510],[1749,530]],[[55097,31536],[1850,1520]],[[56947,33056],[1043,-101]],[[57990,32955],[3840,-1894]],[[61830,31061],[-546,-844],[-3457,-2285]],[[53074,25720],[-673,591]],[[57990,32955],[1237,6180]],[[59227,39135],[3512,-1735]],[[62739,37400],[4093,-3738]],[[66832,33662],[-1961,-1665],[-3041,-936]],[[51581,31762],[240,970],[1918,208]],[[53739,32940],[313,-1347]],[[54052,31593],[305,-224],[-1006,-363],[-65,-510]],[[53697,29828],[836,-76],[-212,-597]],[[52466,28880],[-593,304]],[[51873,29184],[-1131,65],[-243,114]],[[50499,29363],[116,336],[-900,294],[-62,346],[680,-8],[306,593],[502,-652],[1570,314],[-760,648],[639,82],[137,230],[-375,251],[-771,-35]],[[33288,38766],[4925,185]],[[38213,38951],[6409,-2594]],[[44622,36357],[-3659,-1969]],[[40963,34388],[-7949,1178],[274,3200]],[[64977,39406],[1447,5273],[-1310,2041]],[[65114,46720],[4787,6084]],[[69901,52804],[8729,-8445],[1014,-2533],[1105,-716]],[[80749,41110],[-4345,-2913]],[[76404,38197],[-2882,-966]],[[73522,37231],[-2526,2269],[-6019,-94]],[[29150,47739],[4138,-8973]],[[33288,38766],[-272,-3200],[7947,-1178]],[[44622,36357],[945,-129],[1710,995],[-41,1327],[2549,1959]],[[49785,40509],[-407,2960],[8286,-1804]],[[57664,41665],[-28,-887]],[[57636,40778],[-2295,-1674],[-2984,-1435],[437,-2605],[4153,-2008]],[[55097,31536],[-551,-178],[-494,235]],[[53739,32940],[-1843,-65],[-315,-1113]],[[50499,29363],[1374,-179]],[[52401,26311],[-2986,-112],[-2808,439],[-895,1241],[-3388,37],[-2476,1294],[-1004,-1398],[-1879,-1307],[-986,-302],[-3868,-307],[-2477,181]],[[29634,26077],[-2080,4085]],[[27554,30162],[-18249,2611],[19845,14966]],[[12838,68259],[17718,-7458],[13261,1867]],[[43817,62668],[2102,-3596]],[[45919,59072],[-652,-725],[848,-1340],[-755,-684],[2137,-1099],[507,275]],[[48004,55499],[2479,-4244],[9451,-6512]],[[59934,44743],[-2270,-3078]],[[57664,41665],[-8283,1804],[404,-2960]],[[38213,38951],[5146,2094]],[[43359,41045],[2210,2654],[-9106,5938]],[[36463,49637],[-5662,4719],[-1651,-6617]],[[29150,47739],[-19845,-14964],[18249,-2613]],[[29634,26077],[-437,-2136]],[[29197,23941],[-823,611],[-2826,-1636],[316,-1073],[-3053,377],[-171,-935],[-3080,2466],[-5348,406],[-632,793],[960,1382],[-670,361],[-2678,705],[-2603,-1566],[-779,2169],[-4006,-248],[-2236,2362],[2531,3286],[-1522,1192],[572,905],[-1464,1456],[1990,1119],[-2736,589],[1041,1641],[-1980,2719],[655,2334],[2701,22],[978,1144],[-245,2579],[3998,5901],[-1626,672],[459,1690],[2546,2304],[-132,1210],[1247,2771],[-1025,216],[-108,943],[-2865,779],[1216,1584],[2676,-522],[2363,1610]],[[58161,23358],[-215,299]],[[59569,25417],[564,458]],[[60927,26030],[733,106]],[[61660,26136],[349,-1009],[911,-463],[336,-1426]],[[63256,23238],[-908,-33],[-670,-620]],[[61678,22585],[-533,163]],[[61145,22748],[-782,-446]],[[60363,22302],[-90,-514],[-854,-418],[-135,-784]],[[59284,20586],[-1444,246]],[[57840,20832],[-654,1509],[533,163],[82,573],[360,281]],[[38606,81338],[6050,13241]],[[44656,94579],[2670,2311],[562,1592],[2564,1517],[2164,-542],[-1160,-2073],[805,-950],[3020,-1042],[769,-1115],[-792,-2538],[1040,-175],[272,-1304]],[[56570,90260],[-17416,-9583],[-548,661]],[[61525,30488],[305,573]],[[61830,31061],[2756,789]],[[64586,31850],[971,-4144],[724,-602],[471,194]],[[66752,27298],[88,-393],[510,-135]],[[67350,26770],[-210,-597]],[[67140,26173],[1323,-396],[-585,-322]],[[67878,25455],[-422,-2645]],[[67456,22810],[-3020,134]],[[64436,22944],[-1180,294]],[[61660,26136],[468,936]],[[72595,36175],[927,1056]],[[76404,38197],[2373,-4869],[241,-1164]],[[79018,32164],[-329,-483],[-872,-151]],[[77817,31530],[-326,144],[-4896,4501]],[[64586,31850],[2246,1812]],[[66832,33662],[3605,699]],[[70437,34361],[2389,-3722]],[[72826,30639],[-179,-1262]],[[72647,29377],[-1467,-2676],[-756,55]],[[70424,26756],[-1651,-975],[-1633,392]],[[67350,26770],[-510,133],[-88,395]],[[67878,25455],[1708,924],[838,377]],[[70424,26756],[1822,-104]],[[72246,26652],[279,-265],[479,357]],[[73004,26744],[582,-247],[213,373],[1133,169],[54,-346],[606,-13],[26,-519],[-1157,-1829],[13,-695]],[[74474,23637],[-619,-1339]],[[73855,22298],[-1068,-512],[-3263,284]],[[69524,22070],[-2068,740]],[[72826,30639],[1728,-565],[2246,-354]],[[76800,29720],[557,-1005],[535,-218]],[[77892,28497],[-124,-416],[626,-78],[396,-401],[158,-856],[463,230],[740,-412],[-165,-534]],[[79986,26030],[-888,124],[-391,-941]],[[78707,25213],[-1017,-748]],[[77690,24465],[-926,77],[-2290,-905]],[[73004,26744],[-435,-355],[-323,263]],[[72246,26652],[-1009,106],[1410,2619]],[[78707,25213],[391,944],[3028,-359]],[[82126,25798],[854,679],[913,-239],[1061,167],[373,-954],[5434,2077]],[[90761,27528],[1128,-1198],[362,-3050],[862,-1272],[269,2]],[[93382,22010],[-2766,-709],[-1607,1007],[-1480,-452]],[[87529,21856],[-2070,558],[-834,-791]],[[84625,21623],[-698,-96],[-1400,706],[-727,-1142],[-1941,-414],[-1700,1303]],[[78159,21980],[341,709],[-62,1132],[-748,644]],[[75460,6474],[341,3795],[469,932],[3276,-2852],[2805,-3184]],[[82351,5165],[-1175,-2140],[-2427,-271]],[[78749,2754],[-3289,3720]],[[69456,17202],[1351,976],[888,331],[341,593],[508,2629]],[[72544,21731],[1311,567]],[[73855,22298],[4304,-318]],[[84625,21623],[831,791],[2073,-558]],[[93382,22010],[1183,5],[424,-724],[704,-2886],[4306,-4426],[-2463,-185],[-1561,-1572],[-1185,294],[-1928,-1776],[-1338,178],[-613,-143]],[[90911,10775],[-1183,736],[-7274,1926]],[[82454,13437],[-3431,1131],[130,1427]],[[79153,15995],[-562,1462],[-1439,-396],[370,-1314],[1015,-1020],[-2146,-363],[-579,779],[-789,257],[-425,-216],[-929,304]],[[73669,15488],[-1004,-433],[-1333,119]],[[71332,15174],[-357,344],[-463,12],[-1056,1672]],[[62739,37400],[2238,2006]],[[73522,37231],[-3085,-2870]],[[57636,40778],[1591,-1643]],[[60850,22475],[295,273]],[[61678,22585],[502,557],[730,122],[1526,-320]],[[64436,22944],[2981,-126],[2107,-748]],[[69524,22070],[1793,-19],[1227,-320]],[[69456,17202],[-1871,-349]],[[67585,16853],[16,-1047],[957,-1132],[-2378,-1842]],[[66180,12832],[-3335,1522]],[[62845,14354],[145,1034]],[[62990,15388],[-1162,3061],[1053,1941]],[[62881,20390],[-269,652],[-1558,98]],[[61054,21140],[1009,1031]],[[62063,22171],[-1213,304]],[[48004,55499],[9515,5149],[-209,-1769],[1697,-2061],[5634,-2000],[1304,-1418],[1250,-123],[1395,838],[1311,-1311]],[[65114,46720],[-5180,-1977]],[[43817,62668],[12036,4961]],[[55853,67629],[-1051,-2305],[-5750,-2874],[-3133,-3378]],[[63062,14132],[3118,-1300]],[[67585,16853],[422,176],[1449,173]],[[71332,15174],[1331,-119],[1006,433]],[[79153,15995],[-231,-1335],[3532,-1223]],[[82454,13437],[-3188,-1641],[5367,-4951]],[[84633,6845],[-2282,-1680]],[[75460,6474],[-2200,1598],[-1353,342],[-2945,-83],[-1633,-322],[-1482,1796],[-792,75]],[[65055,9880],[-2880,1765],[887,2487]],[[58808,8527],[554,821],[1133,-595]],[[60495,8753],[833,797],[570,-269],[1490,79],[1667,520]],[[78749,2754],[-2145,903],[-3147,-1362],[-2927,434],[-49,-807],[-3229,-1922],[-3106,369],[-2551,1417],[-1980,-265]],[[59615,1521],[-124,3226],[-590,2208]],[[58901,6955],[329,950],[-422,622]],[[52851,17622],[1219,1070],[849,-336],[1889,-269]],[[56808,18087],[541,-378],[-16,-315]],[[57333,17394],[1315,-567],[111,-616]],[[58759,16211],[-360,-517],[246,-755],[-308,-642]],[[58337,14297],[-1079,261]],[[57258,14558],[-1273,-200],[-911,139],[745,982]],[[55819,15479],[-724,17],[72,544],[-603,561]],[[54564,16601],[-357,945],[-178,123]],[[54029,17669],[-883,-598],[-295,551]],[[55444,18313],[357,801]],[[55801,19114],[388,77],[73,534]],[[56262,19725],[916,457],[222,402],[1066,277],[818,-275]],[[60363,22302],[487,173]],[[60850,22475],[986,-136],[227,-168]],[[62063,22171],[-1068,-864],[59,-167]],[[62881,20390],[-1051,-1941],[1160,-3061]],[[62845,14354],[-836,-38],[-2223,-926]],[[59786,13390],[-706,265],[-743,642]],[[58759,16211],[-114,616],[-1312,567]],[[56808,18087],[-1364,226]],[[90911,10775],[-753,-173],[-1144,738],[-1309,-1953],[-1607,-53],[-344,-1666],[-1121,-823]],[[84633,6845],[-5369,4951],[3190,1641]],[[54831,6376],[-360,410],[300,210],[844,-359],[114,247],[711,38]],[[56440,6922],[334,402],[339,1392]],[[57113,8716],[-298,292],[451,562],[-500,216],[531,306],[-137,479],[341,1508],[1861,247],[424,1064]],[[62845,14354],[217,-222]],[[60495,8753],[-1208,548],[-479,-774]],[[58901,6955],[456,-2389]],[[59357,4566],[-1910,-24]],[[57447,4542],[-1879,399],[-367,1119],[-999,208],[629,108]],[[54989,14409],[2269,149]],[[58337,14297],[1449,-907]],[[57113,8716],[-344,-897]],[[56769,7819],[-1698,1802]],[[55071,9621],[430,1396]],[[55501,11017],[750,314],[192,636]],[[56443,11967],[-1454,2442]],[[50426,6107],[1545,118],[1307,400],[626,-520]],[[53904,6105],[264,167],[1030,-208],[370,-1121],[1879,-401]],[[59357,4566],[258,-3045]],[[59615,1521],[-7033,947],[-1113,930],[-1043,2709]],[[50279,11600],[277,775]],[[50556,12375],[191,8],[-230,-381],[455,298]],[[50972,12300],[753,1367],[39,355]],[[51764,14022],[-828,-269]],[[50936,13753],[-70,155],[298,746],[-91,1419]],[[51073,16073],[414,49],[409,770]],[[51896,16892],[795,-22],[1338,799]],[[54029,17669],[535,-1068]],[[55819,15479],[-349,-621],[-481,-449]],[[54989,14409],[-1395,-293],[-1294,-850],[-202,-438],[-406,6],[77,-471],[-401,-337],[389,-338]],[[51757,11688],[-350,-499],[-279,562],[-849,-151]],[[51167,10724],[421,310]],[[51588,11034],[-132,375],[301,279]],[[56443,11967],[-189,-636],[-753,-314]],[[55501,11017],[-344,-601],[132,-528],[-218,-267]],[[55071,9621],[608,-583],[-175,-403],[-720,-163],[-178,-274]],[[54606,8198],[-1305,-191],[-119,1172],[-401,-143],[-300,277]],[[52481,9313],[-1322,265],[-396,386],[551,350],[-147,410]],[[48708,13618],[-282,857]],[[48426,14475],[1157,183],[215,514]],[[49798,15172],[1314,-149],[-176,-1270]],[[51764,14022],[-792,-1722]],[[50556,12375],[-280,-499],[3,-276]],[[50279,11600],[499,-51],[24,-293],[-971,-308]],[[49831,10948],[-473,-893]],[[49358,10055],[-577,-191],[-376,159],[24,1317]],[[48429,11340],[-691,1123],[970,1155]],[[42656,9442],[509,1386],[-315,230],[522,618],[492,244],[603,-338],[675,104],[288,230],[28,636],[1434,598],[-83,648]],[[46809,13798],[1351,605],[292,-63],[256,-722]],[[48429,11340],[44,-1442],[885,157]],[[49831,10948],[686,106],[494,683],[577,-703]],[[51167,10724],[150,-410],[-541,-328],[155,-293]],[[50931,9693],[-310,-157],[204,-431]],[[50825,9105],[-305,-428],[295,-397],[-546,-1935]],[[50269,6345],[-2197,2555],[-2614,1282],[-2802,-740]],[[85777,40621],[261,536],[997,-2024],[1218,-267],[337,1117],[1056,-771],[1014,651],[1271,-1278],[-1103,-259],[-929,-1737],[487,-748],[-3804,3695],[-805,1085]],[[50825,9105],[-223,339],[329,249]],[[50931,9693],[1550,-380]],[[54606,8198],[1035,598],[541,-247],[587,-730]],[[56769,7819],[-329,-897]],[[54831,6376],[-127,-159],[-225,194],[-575,-306]],[[50426,6107],[-157,238]],[[45316,18439],[1871,1213]],[[47187,19652],[2013,-948]],[[49200,18704],[1019,-689],[650,-919]],[[50869,17096],[155,-2020],[-1226,96]],[[48426,14475],[36,949],[-859,455]],[[47603,15879],[-176,430],[629,493]],[[48056,16802],[-59,365],[-2681,1272]],[[90546,30784],[114,-653]],[[90660,30131],[-4275,577],[-510,765],[-77,1223],[572,621],[758,241],[3418,-2774]],[[36771,15824],[4228,701],[1605,1056],[2712,858]],[[45316,18439],[2681,-1270],[59,-367]],[[47603,15879],[885,-581],[-103,-870],[-1576,-630]],[[42656,9442],[-1732,338],[-3728,2787],[-378,1237],[303,556],[-1856,681],[1594,365],[-88,418]],[[47187,19652],[579,1824],[1349,500],[633,825],[590,-106],[1131,496],[1907,2211]],[[53376,25402],[1188,-424]],[[54564,24978],[324,-1561]],[[54888,23417],[-725,-952]],[[54163,22465],[54,-324],[-698,-155]],[[53519,21986],[-461,-803],[-981,-222],[469,-1015],[812,152]],[[53358,20098],[130,-201],[-564,-286]],[[52924,19611],[-26,-373]],[[52898,19238],[-1775,108]],[[51123,19346],[-546,375],[-1377,-1017]],[[53519,21986],[696,157],[-52,322]],[[54888,23417],[-238,1174],[1444,-1616]],[[56094,22975],[-422,-632],[302,-532]],[[55974,21811],[-582,-237],[-326,-518],[-256,-1524]],[[54810,19532],[-300,-114],[-1152,680]],[[52401,26311],[975,-909]],[[36771,15824],[-155,736],[1193,96],[334,1137],[1226,-312],[124,869],[1320,189],[375,809],[-1700,1594],[-2003,-362],[-727,493],[-828,-789],[52,1700],[-3095,-1217],[-251,620],[-3439,2554]],[[54564,24978],[2166,-491],[370,-271]],[[57382,23965],[779,-607]],[[57840,20832],[-1578,-1107]],[[55801,19114],[-991,418]],[[54810,19532],[21,536],[502,1455],[641,288]],[[56094,22975],[-1530,2003]],[[51123,19346],[649,74],[318,-273],[808,91]],[[52924,19611],[566,259],[2311,-756]],[[55444,18313],[-1382,377],[-1211,-1068]],[[52851,17622],[285,-585],[-1240,-145]],[[51073,16073],[-258,269],[54,754]],[[70437,34361],[2158,1814]],[[77817,31530],[872,153],[329,481]],[[80749,41110],[712,-461],[1180,1040],[222,-1863],[2008,298],[145,-1073],[761,1570]],[[85777,40621],[5137,-5593],[-973,-3137],[605,-1107]],[[90660,30131],[-574,-1225]],[[90086,28906],[-4697,-389],[-616,648],[-362,-842],[-256,-47],[-702,740],[-494,1301]],[[82959,30317],[-383,-243],[-748,-1337],[-450,-350]],[[81378,28387],[-717,10],[-530,120]],[[80131,28517],[-777,1382],[-1304,185],[-1250,-364]],[[29150,47739],[1651,6619],[5662,-4721]],[[43359,41045],[-1159,-512],[-3987,-1582]],[[80131,28517],[1247,-130]],[[81378,28387],[1581,1930]],[[90086,28906],[-163,-348],[838,-1030]],[[82126,25798],[-1248,6],[-892,226]],[[77892,28497],[-533,218],[-559,1005]],[[12838,68259],[1785,1215],[-46,5312],[2535,3802],[-804,3149],[-1483,577],[-370,1433],[6327,2377],[4885,-928],[1750,1920],[2484,471],[-70,1609],[4104,848],[3017,2011],[1201,-419],[1007,1496],[1526,897],[3483,130],[487,420]],[[44656,94579],[-6006,-12940],[-44,-301]],[[56570,90260],[284,-1374],[-256,-958],[2559,71],[2071,850],[219,-2169],[1667,-2195],[-2883,-2340],[-709,-2147],[11,-1337],[-1752,-1796],[-2958,-876],[352,-1327],[2792,-2100],[-1118,-1335],[1757,-1736],[-2450,-1195],[-303,-667]]],"bbox":[-46.10719,-23.30669,-45.72075,-22.81611],"transform":{"scale":[0.0000038644386443864476,0.0000049058490584905985],"translate":[-46.10719,-23.30669]}}
