{"type":"Topology","objects":{"bairros":{"type":"GeometryCollection","geometries":[{"type":"Polygon","arcs":[[0,1,2,3,4,5]],"properties":{"id":0,"nome":"Alto da Ponte"}},{"type":"Polygon","arcs":[[6,7,8,9,10,11,12]],"properties":{"id":1,"nome":"Altos da Vila Paiva"}},{"type":"Polygon","arcs":[[13,14,15,16,17,18]],"properties":{"id":3,"nome":"Altos do Caetê II"}},{"type":"Polygon","arcs":[[19,20,21,22]],"properties":{"id":4,"nome":"Altos do Esplanada"}},{"type":"Polygon","arcs":[[23,24,25,26,27,28]],"properties":{"id":5,"nome":"Bairro da Pernambucana"}},{"type":"MultiPolygon","arcs":[[[29,30,31,32,33]],[[34,35,36,37,38,39]]],"properties":{"id":6,"nome":"Bom Retiro"}},{"type":"Polygon","arcs":[[40,41,42,43,44,45,46,47,48,49,50,51,52,53,54],[55,56]],"properties":{"id":7,"nome":"Bosque dos Eucaliptos"}},{"type":"Polygon","arcs":[[57,58,59,-14,60]],"properties":{"id":8,"nome":"Buquirinha"}},{"type":"Polygon","arcs":[[61,62,63,64]],"properties":{"id":9,"nome":"Buquirinha II"}},{"type":"MultiPolygon","arcs":[[[65,66]],[[67,68,69,70,71,72,73,74,75,76]]],"properties":{"id":11,"nome":"Campo dos Alemães"}},{"type":"Polygon","arcs":[[77,78,79,80,81,82,83,84,85,86,87,88]],"properties":{"id":12,"nome":"Campos de São José"}},{"type":"MultiPolygon","arcs":[[[89,90,91,92,93]],[[94,95,96,97,98,99,100,101]]],"properties":{"id":13,"nome":"Campus do CTA"}},{"type":"Polygon","arcs":[[102,103,104]],"properties":{"id":14,"nome":"Capuava"}},{"type":"Polygon","arcs":[[-56,105]],"properties":{"id":15,"nome":"Capão Grosso II-D"}},{"type":"Polygon","arcs":[[106,107,108,109,110,111,112]],"properties":{"id":16,"nome":"Centro"}},{"type":"Polygon","arcs":[[113,114,115,116,117,118,119,120,121],[122]],"properties":{"id":17,"nome":"Centro (São Francisco Xavier)"}},{"type":"MultiPolygon","arcs":[[[123,124,125]],[[126,127,128]]],"properties":{"id":18,"nome":"Chácara dos Coqueiros"}},{"type":"Polygon","arcs":[[129,130,131,132,133]],"properties":{"id":19,"nome":"Chácara dos Eucalíptos"}},{"type":"Polygon","arcs":[[134,135,136,137,138,139,-82]],"properties":{"id":20,"nome":"Chácaras Araújo I"}},{"type":"Polygon","arcs":[[140,141,142,-137]],"properties":{"id":21,"nome":"Chácaras Araújo II"}},{"type":"Polygon","arcs":[[143,144,-1,145,146,147]],"properties":{"id":22,"nome":"Chácaras Boa Esperança"}},{"type":"Polygon","arcs":[[-16,148,-13,149,150,151,152]],"properties":{"id":23,"nome":"Chácaras Oliveiras"}},{"type":"Polygon","arcs":[[153,154,-84,155,156,157,158,159,160,161]],"properties":{"id":24,"nome":"Chácaras Pousada do Vale"}},{"type":"Polygon","arcs":[[162,163,164,165,166,167,168,169,170,171]],"properties":{"id":25,"nome":"Chácaras Reunidas"}},{"type":"Polygon","arcs":[[172,173,-90,174,175]],"properties":{"id":26,"nome":"Chácaras São José"}},{"type":"Polygon","arcs":[[176,177,178,179,180,181,182,183,184,185]],"properties":{"id":27,"nome":"Cidade Morumbi"}},{"type":"Polygon","arcs":[[186,187,188,189,190,191,192,-79,193,194,195]],"properties":{"id":28,"nome":"Cidade Vista Verde"}},{"type":"Polygon","arcs":[[196,197]],"properties":{"id":29,"nome":"Condominio Spazio Campo Azuli"}},{"type":"Polygon","arcs":[[198,199]],"properties":{"id":30,"nome":"Condomínio Bosque Imperial"}},{"type":"Polygon","arcs":[[200,201,202]],"properties":{"id":31,"nome":"Condomínio Centro Empresarial Taquari"}},{"type":"Polygon","arcs":[[203,204,205,206,207,208]],"properties":{"id":32,"nome":"Condomínio Chácara Serimbura"}},{"type":"MultiPolygon","arcs":[[[209,210,211,212]],[[213,214,215]]],"properties":{"id":33,"nome":"Condomínio Chácara dos Eucaliptos"}},{"type":"Polygon","arcs":[[216,217,218,219,220,221,222]],"properties":{"id":34,"nome":"Condomínio Colinas do Parahyba"}},{"type":"Polygon","arcs":[[223,224,-222]],"properties":{"id":35,"nome":"Condomínio Espelho D'água"}},{"type":"Polygon","arcs":[[225,226,227,228,229,230]],"properties":{"id":36,"nome":"Condomínio Esplanada do Sol"}},{"type":"Polygon","arcs":[[-230,231,232]],"properties":{"id":38,"nome":"Condomínio Loteamento Reserva das Figueiras"}},{"type":"Polygon","arcs":[[233,234,235,236,237,238,239]],"properties":{"id":39,"nome":"Condomínio Reserva do Paratehy"}},{"type":"Polygon","arcs":[[240,241,242,243,244,245]],"properties":{"id":40,"nome":"Condomínio Residencial Alphaville I"}},{"type":"Polygon","arcs":[[246,247,248,249,250]],"properties":{"id":41,"nome":"Condomínio Residencial Alphaville II"}},{"type":"MultiPolygon","arcs":[[[251,252]],[[253,254,255]]],"properties":{"id":42,"nome":"Condomínio Residencial Altos da Quinta"}},{"type":"MultiPolygon","arcs":[[[256,257,258,259]],[[260,261,262]]],"properties":{"id":43,"nome":"Condomínio Residencial Campo Belo"}},{"type":"Polygon","arcs":[[263,264,-247,265,266,267,268,269,270,271]],"properties":{"id":44,"nome":"Condomínio Residencial Colinas do Paratehy"}},{"type":"Polygon","arcs":[[272,273,-189]],"properties":{"id":45,"nome":"Condomínio Residencial Floresta"}},{"type":"Polygon","arcs":[[274,275,276,-234,277]],"properties":{"id":46,"nome":"Condomínio Residencial Jaguari - Área 5"}},{"type":"Polygon","arcs":[[278,279,280,-236,281,-277]],"properties":{"id":47,"nome":"Condomínio Residencial Jaguary"}},{"type":"Polygon","arcs":[[282,283,284,285]],"properties":{"id":48,"nome":"Condomínio Residencial Jardins"}},{"type":"Polygon","arcs":[[286,287,288,289,290,-8]],"properties":{"id":49,"nome":"Condomínio Residencial Mantiqueira"}},{"type":"MultiPolygon","arcs":[[[291,292,293]],[[294,-270,295,296]]],"properties":{"id":50,"nome":"Condomínio Residencial Monaco"}},{"type":"Polygon","arcs":[[-272,297]],"properties":{"id":51,"nome":"Condomínio Residencial Mont Blanc"}},{"type":"Polygon","arcs":[[298,299,300,301,-280]],"properties":{"id":52,"nome":"Condomínio Residencial Monte Carlo"}},{"type":"Polygon","arcs":[[-250,302,303,304,305,306,-243]],"properties":{"id":53,"nome":"Condomínio Residencial Montserrat"}},{"type":"MultiPolygon","arcs":[[[307,-64,308,-223,-225,309,-2,-145]],[[310,311,312,313,-59]]],"properties":{"id":54,"nome":"Condomínio Residencial Terra Nova"}},{"type":"Polygon","arcs":[[314,315,316,317]],"properties":{"id":55,"nome":"Condomínio Royal Park"}},{"type":"Polygon","arcs":[[318,319,320]],"properties":{"id":56,"nome":"Condomínio Sunset Park"}},{"type":"Polygon","arcs":[[321,322,323]],"properties":{"id":57,"nome":"Condomínio Villagio Fazendão"}},{"type":"MultiPolygon","arcs":[[[324,325,326]],[[327,328,329,330]]],"properties":{"id":58,"nome":"Conjunto Habitacional São José dos Campos A"}},{"type":"Polygon","arcs":[[331,332,333,334,335,336]],"properties":{"id":59,"nome":"Conjunto Papa João Paulo II"}},{"type":"Polygon","arcs":[[337,-332,338,339]],"properties":{"id":60,"nome":"Conjunto Residencial Dom Pedro I"}},{"type":"Polygon","arcs":[[340,341,342,343]],"properties":{"id":61,"nome":"Conjunto Residencial Dom Pedro II"}},{"type":"Polygon","arcs":[[344,345,346]],"properties":{"id":62,"nome":"Conjunto Residencial Elmano Veloso"}},{"type":"Polygon","arcs":[[347,-67,348,349,350,351,352,353,354]],"properties":{"id":63,"nome":"Conjunto Residencial Galo Branco"}},{"type":"Polygon","arcs":[[355,356,357]],"properties":{"id":64,"nome":"Conjunto Residencial Intervale"}},{"type":"Polygon","arcs":[[-168,358,359,360,361,362,363,364,365,366]],"properties":{"id":65,"nome":"Conjunto Residencial Trinta e Um de Março"}},{"type":"Polygon","arcs":[[367,368,369,370,371]],"properties":{"id":66,"nome":"Conjunto Residencial Vale dos Pinheiros"}},{"type":"Polygon","arcs":[[372,373,374]],"properties":{"id":67,"nome":"Conjunto Residencial Vila Leila"}},{"type":"Polygon","arcs":[[-121,375,376,-62,377,-312,378]],"properties":{"id":68,"nome":"Costinha"}},{"type":"Polygon","arcs":[[379,380,381,382,383]],"properties":{"id":69,"nome":"Eldorado"}},{"type":"Polygon","arcs":[[-219,384,385,386,387,388,-352,389,390,391,392,393,394,395,396,397,398,399,400]],"properties":{"id":70,"nome":"Eugênio de Mello"}},{"type":"Polygon","arcs":[[401]],"properties":{"id":71,"nome":"Floradas de São José"}},{"type":"Polygon","arcs":[[-313,-378,-65,-308,-144,402,403,-288,404,405]],"properties":{"id":72,"nome":"Freitas"}},{"type":"Polygon","arcs":[[-152,406,407,408]],"properties":{"id":73,"nome":"Jaguari"}},{"type":"Polygon","arcs":[[409,410,411,412,413,414]],"properties":{"id":74,"nome":"Jardim Aeroporto"}},{"type":"Polygon","arcs":[[415,416,417,418,419,420]],"properties":{"id":75,"nome":"Jardim Allah"}},{"type":"Polygon","arcs":[[-17,-153,421,422,423,424,425,426,427,428,-226,429,430,-248,-265]],"properties":{"id":76,"nome":"Jardim Altos de Santana"}},{"type":"Polygon","arcs":[[431,432,-315,433,434]],"properties":{"id":77,"nome":"Jardim Alvorada"}},{"type":"Polygon","arcs":[[435,436,437,-193]],"properties":{"id":78,"nome":"Jardim Americano"}},{"type":"Polygon","arcs":[[438,439,440,441,442,443,444]],"properties":{"id":79,"nome":"Jardim América"}},{"type":"Polygon","arcs":[[445,446,447]],"properties":{"id":80,"nome":"Jardim Anhembi"}},{"type":"MultiPolygon","arcs":[[[448]],[[449,450]]],"properties":{"id":81,"nome":"Jardim Aparecida"}},{"type":"Polygon","arcs":[[451,452]],"properties":{"id":82,"nome":"Jardim Apolo"}},{"type":"MultiPolygon","arcs":[[[453,454]],[[455,456,457]]],"properties":{"id":83,"nome":"Jardim Apolo I"}},{"type":"Polygon","arcs":[[458,459,460]],"properties":{"id":84,"nome":"Jardim Apolo II"}},{"type":"Polygon","arcs":[[461,-201,462,-22,463,464]],"properties":{"id":85,"nome":"Jardim Aquárius"}},{"type":"Polygon","arcs":[[465,466,467,468]],"properties":{"id":86,"nome":"Jardim Augusta"}},{"type":"Polygon","arcs":[[469,470]],"properties":{"id":87,"nome":"Jardim Azaléias"}},{"type":"Polygon","arcs":[[471,472,473,474,475,476,477,478,479],[480,-198]],"properties":{"id":88,"nome":"Jardim Bela Vista"}},{"type":"Polygon","arcs":[[-404,481,482,-289]],"properties":{"id":89,"nome":"Jardim Boa Vista"}},{"type":"Polygon","arcs":[[483,484,485]],"properties":{"id":90,"nome":"Jardim Brasília"}},{"type":"Polygon","arcs":[[486,487,488]],"properties":{"id":91,"nome":"Jardim Capitingal"}},{"type":"MultiPolygon","arcs":[[[489,490,491,492,493,494]],[[495,496,-268,497,498]]],"properties":{"id":92,"nome":"Jardim Castanheira"}},{"type":"Polygon","arcs":[[499,-346,500,501,502,503]],"properties":{"id":93,"nome":"Jardim Colonial"}},{"type":"Polygon","arcs":[[504,505,506]],"properties":{"id":94,"nome":"Jardim Colorado"}},{"type":"Polygon","arcs":[[507,508,509]],"properties":{"id":95,"nome":"Jardim Copacabana"}},{"type":"Polygon","arcs":[[510,511,512]],"properties":{"id":96,"nome":"Jardim Cruzeiro do Sul"}},{"type":"Polygon","arcs":[[513,514,-50]],"properties":{"id":97,"nome":"Jardim Del Rey"}},{"type":"Polygon","arcs":[[515,516,-196,517,518]],"properties":{"id":98,"nome":"Jardim Diamante"}},{"type":"Polygon","arcs":[[-371,519,520,521,522,523,524,525,526,527,528]],"properties":{"id":99,"nome":"Jardim Esplanada"}},{"type":"MultiPolygon","arcs":[[[-524,529,530,531,-526,532]],[[533,534,535,-522,536]]],"properties":{"id":100,"nome":"Jardim Esplanada II"}},{"type":"MultiPolygon","arcs":[[[537,538,539,540]],[[541,542,-207,543]]],"properties":{"id":101,"nome":"Jardim Estoril"}},{"type":"Polygon","arcs":[[544,545,546,547]],"properties":{"id":102,"nome":"Jardim Fátima"}},{"type":"Polygon","arcs":[[548,549,550,551,552]],"properties":{"id":103,"nome":"Jardim Guimarães"}},{"type":"Polygon","arcs":[[-76,553,-504,554,555,556]],"properties":{"id":104,"nome":"Jardim Imperial"}},{"type":"Polygon","arcs":[[557,558,559,-509,560,561,562,563]],"properties":{"id":105,"nome":"Jardim Ismênia"}},{"type":"Polygon","arcs":[[-387,-354,564,565,566]],"properties":{"id":106,"nome":"Jardim Itapoã"}},{"type":"Polygon","arcs":[[567,568,569,570]],"properties":{"id":107,"nome":"Jardim Juliana"}},{"type":"Polygon","arcs":[[571,572,-165,573,574,-214,575]],"properties":{"id":108,"nome":"Jardim Limoeiro"}},{"type":"Polygon","arcs":[[576,-540,577]],"properties":{"id":109,"nome":"Jardim Madureira"}},{"type":"Polygon","arcs":[[578,579,580,-31,581]],"properties":{"id":110,"nome":"Jardim Majestic"}},{"type":"Polygon","arcs":[[582]],"properties":{"id":111,"nome":"Jardim Maracanã"}},{"type":"Polygon","arcs":[[583]],"properties":{"id":112,"nome":"Jardim Margareth"}},{"type":"Polygon","arcs":[[584,585,-154,586]],"properties":{"id":113,"nome":"Jardim Mariana I"}},{"type":"Polygon","arcs":[[-87,587,588,589]],"properties":{"id":114,"nome":"Jardim Mariana II"}},{"type":"Polygon","arcs":[[590,591,592,593]],"properties":{"id":115,"nome":"Jardim Maringá"}},{"type":"Polygon","arcs":[[594,595,596]],"properties":{"id":116,"nome":"Jardim Maritéia"}},{"type":"Polygon","arcs":[[597,598,-37]],"properties":{"id":117,"nome":"Jardim Mesquita"}},{"type":"Polygon","arcs":[[-151,599,600,601,602,603,-407]],"properties":{"id":118,"nome":"Jardim Minas Gerais"}},{"type":"Polygon","arcs":[[-131,604,605,606,-191,607,608]],"properties":{"id":119,"nome":"Jardim Motorama"}},{"type":"Polygon","arcs":[[609,610,611,612,613,614]],"properties":{"id":120,"nome":"Jardim Nova América"}},{"type":"Polygon","arcs":[[615,616,617,618]],"properties":{"id":121,"nome":"Jardim Nova Detroit"}},{"type":"Polygon","arcs":[[619,620,621,622]],"properties":{"id":122,"nome":"Jardim Nova Flórida"}},{"type":"MultiPolygon","arcs":[[[623,-495,624,625,626,-138]],[[627,628,-156,629]]],"properties":{"id":123,"nome":"Jardim Nova Michigan"}},{"type":"Polygon","arcs":[[630,631,632,633]],"properties":{"id":124,"nome":"Jardim Nova Michigan II"}},{"type":"MultiPolygon","arcs":[[[634,635,636,637]],[[638,639,640,641,642,643]]],"properties":{"id":125,"nome":"Jardim Nova República"}},{"type":"Polygon","arcs":[[644,645,-486,646,-558,647]],"properties":{"id":126,"nome":"Jardim Olímpia"}},{"type":"Polygon","arcs":[[648,649,650,651,652,653]],"properties":{"id":127,"nome":"Jardim Oriente"}},{"type":"Polygon","arcs":[[-469,654,-96,655,656]],"properties":{"id":128,"nome":"Jardim Oswaldo Cruz"}},{"type":"Polygon","arcs":[[657,658,659,660,661,662]],"properties":{"id":129,"nome":"Jardim Ouro Preto"}},{"type":"MultiPolygon","arcs":[[[663,664]],[[-618,665,666,667,668]]],"properties":{"id":130,"nome":"Jardim Pararangaba"}},{"type":"Polygon","arcs":[[669,-444,670,671]],"properties":{"id":131,"nome":"Jardim Paraíso"}},{"type":"Polygon","arcs":[[672,673,674,675,676,677]],"properties":{"id":132,"nome":"Jardim Paraíso do Sol"}},{"type":"Polygon","arcs":[[678,679,680,681]],"properties":{"id":133,"nome":"Jardim Paulista"}},{"type":"Polygon","arcs":[[682,683]],"properties":{"id":134,"nome":"Jardim Petrópolis"}},{"type":"Polygon","arcs":[[-48,684,685,686,687,688,689,690]],"properties":{"id":135,"nome":"Jardim Portugal"}},{"type":"Polygon","arcs":[[691,692,693,694]],"properties":{"id":136,"nome":"Jardim Primavera II"}},{"type":"Polygon","arcs":[[695,-591]],"properties":{"id":137,"nome":"Jardim Renata"}},{"type":"Polygon","arcs":[[696,697,-503,698,699,-636]],"properties":{"id":138,"nome":"Jardim República"}},{"type":"Polygon","arcs":[[700,701]],"properties":{"id":139,"nome":"Jardim Rodolfo"}},{"type":"Polygon","arcs":[[702]],"properties":{"id":140,"nome":"Jardim Rosário"}},{"type":"Polygon","arcs":[[703]],"properties":{"id":141,"nome":"Jardim San Marino"}},{"type":"MultiPolygon","arcs":[[[704,705,706,-632]],[[707,708,709]]],"properties":{"id":142,"nome":"Jardim San Rafael"}},{"type":"Polygon","arcs":[[710,-162,711,712]],"properties":{"id":143,"nome":"Jardim Santa Cecília I"}},{"type":"MultiPolygon","arcs":[[[713,714,715,716,717]],[[-160,718,719,-418]]],"properties":{"id":144,"nome":"Jardim Santa Hermínia"}},{"type":"MultiPolygon","arcs":[[[720,721,722]],[[723,-396,724,725,726,727,728,729,-104]]],"properties":{"id":145,"nome":"Jardim Santa Inês I"}},{"type":"Polygon","arcs":[[730,731,732,-667,733]],"properties":{"id":146,"nome":"Jardim Santa Inês II"}},{"type":"Polygon","arcs":[[734,735,736,737,738]],"properties":{"id":147,"nome":"Jardim Santa Inês III"}},{"type":"Polygon","arcs":[[739,740,741,742,743,744,745,746,747,748,749]],"properties":{"id":148,"nome":"Jardim Santa Júlia"}},{"type":"Polygon","arcs":[[750,751,752,753,754,-749,755,-747,756,757]],"properties":{"id":149,"nome":"Jardim Santa Luzia"}},{"type":"Polygon","arcs":[[758,759]],"properties":{"id":150,"nome":"Jardim Santa Madalena"}},{"type":"Polygon","arcs":[[760,761,762,763,764,-492]],"properties":{"id":151,"nome":"Jardim Santa Maria"}},{"type":"MultiPolygon","arcs":[[[765,-735,766]],[[767]]],"properties":{"id":152,"nome":"Jardim Santa Maria III"}},{"type":"Polygon","arcs":[[768,769,770,771]],"properties":{"id":153,"nome":"Jardim Santa Matilde"}},{"type":"Polygon","arcs":[[772,-752,773,774]],"properties":{"id":154,"nome":"Jardim Santa Rosa"}},{"type":"Polygon","arcs":[[-60,-314,-406,775,-15]],"properties":{"id":155,"nome":"Jardim Santarém"}},{"type":"Polygon","arcs":[[776,777,778,779,780]],"properties":{"id":156,"nome":"Jardim Santo Onofre"}},{"type":"Polygon","arcs":[[781,782,783,784,785,786,787,788,789,790,791,-285,792,793,794,795,796,797],[-402]],"properties":{"id":157,"nome":"Jardim Satélite"}},{"type":"Polygon","arcs":[[-783,798]],"properties":{"id":158,"nome":"Jardim Serimbura"}},{"type":"Polygon","arcs":[[799,800,801,802,803]],"properties":{"id":159,"nome":"Jardim Souto"}},{"type":"Polygon","arcs":[[804,805,806,807,808]],"properties":{"id":160,"nome":"Jardim Sul"}},{"type":"Polygon","arcs":[[-112,809,810,811,812,813,814,815,816,817],[818,-451]],"properties":{"id":161,"nome":"Jardim São Dimas"}},{"type":"Polygon","arcs":[[819,820]],"properties":{"id":162,"nome":"Jardim São Jorge"}},{"type":"Polygon","arcs":[[821,822,823,824]],"properties":{"id":163,"nome":"Jardim São José Centro"}},{"type":"Polygon","arcs":[[-392,825,826,827,828]],"properties":{"id":164,"nome":"Jardim São José II"}},{"type":"Polygon","arcs":[[-737,829,830,-393,-829,831,832,833,834]],"properties":{"id":165,"nome":"Jardim São José Leste"}},{"type":"Polygon","arcs":[[-27,835,-781,836,837,838,839]],"properties":{"id":166,"nome":"Jardim São Judas Tadeu"}},{"type":"MultiPolygon","arcs":[[[840,-743,841,842,843,844,845,846,847]],[[848,849,-398,-731,850]]],"properties":{"id":167,"nome":"Jardim São Leopoldo"}},{"type":"Polygon","arcs":[[851,852,853,-606]],"properties":{"id":168,"nome":"Jardim São Vicente"}},{"type":"Polygon","arcs":[[854,855,856,857,-427]],"properties":{"id":169,"nome":"Jardim Telespark"}},{"type":"Polygon","arcs":[[858,-805,859]],"properties":{"id":170,"nome":"Jardim Terras do Sul"}},{"type":"Polygon","arcs":[[860]],"properties":{"id":171,"nome":"Jardim Topázio"}},{"type":"Polygon","arcs":[[861,-689,862,-44,-791,863,864,865,-29,866,867,868,869,870,871,872,-329],[873]],"properties":{"id":172,"nome":"Jardim Torrão de Ouro"}},{"type":"Polygon","arcs":[[874,875,876,877,878]],"properties":{"id":173,"nome":"Jardim Três José"}},{"type":"Polygon","arcs":[[879,-176,880,881,882,-505]],"properties":{"id":174,"nome":"Jardim Uirá"}},{"type":"Polygon","arcs":[[883,884,-178,885,886,887,888,-382,889]],"properties":{"id":175,"nome":"Jardim Vale do Sol"}},{"type":"Polygon","arcs":[[890,891,892,-187,893]],"properties":{"id":176,"nome":"Jardim Valparaíba"}},{"type":"Polygon","arcs":[[894,895,896,-360]],"properties":{"id":177,"nome":"Jardim Veneza"}},{"type":"MultiPolygon","arcs":[[[897,898,899,900,901,902]],[[903,904,905,906,907]]],"properties":{"id":178,"nome":"Jardim da Granja"}},{"type":"MultiPolygon","arcs":[[[908,909,-693,910]],[[911,-493,-765,912,913,914,915,-628,916]]],"properties":{"id":179,"nome":"Jardim das Cerejeiras"}},{"type":"Polygon","arcs":[[917,918,919,-528,920,921,-319,922]],"properties":{"id":180,"nome":"Jardim das Colinas"}},{"type":"Polygon","arcs":[[-400,923,924]],"properties":{"id":181,"nome":"Jardim das Flores"}},{"type":"Polygon","arcs":[[925,-209,-923,926,927,928,929,930,931,-573]],"properties":{"id":182,"nome":"Jardim das Indústrias"}},{"type":"Polygon","arcs":[[932,-714,933]],"properties":{"id":183,"nome":"Jardim das Paineiras I"}},{"type":"Polygon","arcs":[[934,935,936,-157]],"properties":{"id":184,"nome":"Jardim das Paineiras II"}},{"type":"Polygon","arcs":[[-652,937]],"properties":{"id":185,"nome":"Jardim do Céu"}},{"type":"Polygon","arcs":[[938,-304,-430,-231,939,-919,940,-211]],"properties":{"id":186,"nome":"Jardim do Golfe"}},{"type":"Polygon","arcs":[[941,942,943,944,-25,945]],"properties":{"id":187,"nome":"Jardim do Lago"}},{"type":"Polygon","arcs":[[-556,946,-639,947]],"properties":{"id":188,"nome":"Jardim dos Bandeirantes"}},{"type":"Polygon","arcs":[[948,-917]],"properties":{"id":189,"nome":"Loteamento Boa Esperança II"}},{"type":"Polygon","arcs":[[949,950,951,952]],"properties":{"id":190,"nome":"Loteamento Conjunto Morada do Sol II"}},{"type":"Polygon","arcs":[[953,954,-849,955,956,957]],"properties":{"id":191,"nome":"Loteamento Fazenda Ronda"}},{"type":"MultiPolygon","arcs":[[[958,-827,959,-580,960,961,-763]],[[962,-323,963,964,965,-842,-742,966]],[[967,-93,968,969,970,971,-754,972]],[[-403,-148,-769,-482]]],"properties":{"id":192,"nome":"Loteamento Floresta"}},{"type":"Polygon","arcs":[[973,974,975,-421,976]],"properties":{"id":193,"nome":"Loteamento Jardim Helena"}},{"type":"Polygon","arcs":[[-834,977,978]],"properties":{"id":194,"nome":"Loteamento Portal Santa Inês"}},{"type":"Polygon","arcs":[[979,980,-648,981,982,983,984,985]],"properties":{"id":195,"nome":"Loteamento Residencial Vista Linda"}},{"type":"Polygon","arcs":[[-643,986,987,988]],"properties":{"id":196,"nome":"Loteamento Santa Edwiges"}},{"type":"Polygon","arcs":[[989,-847,990,991,992]],"properties":{"id":197,"nome":"Loteamento Terra Brasilis"}},{"type":"Polygon","arcs":[[993,994,995,996]],"properties":{"id":198,"nome":"Loteamento Terras Alpha São José dos Campos"}},{"type":"Polygon","arcs":[[-713,997,998,-966,999]],"properties":{"id":199,"nome":"Loteamento Tom Jobim"}},{"type":"MultiPolygon","arcs":[[[1000,1001,1002]],[[1003,1004,1005,1006]]],"properties":{"id":200,"nome":"Loteamento Urbanova II"}},{"type":"Polygon","arcs":[[1007,1008,1009,1010,1011,-906]],"properties":{"id":201,"nome":"Loteamento Verana"}},{"type":"Polygon","arcs":[[1012,-300]],"properties":{"id":202,"nome":"Loteamento Vivant Urbanova"}},{"type":"Polygon","arcs":[[1013,1014,1015,1016,1017,1018,1019],[1020]],"properties":{"id":203,"nome":"Monte Castelo"}},{"type":"MultiPolygon","arcs":[[[1021,1022]],[[1023,-953,1024,1025]]],"properties":{"id":204,"nome":"Morada do Sol"}},{"type":"Polygon","arcs":[[1026,-931,1027,1028,-683,1029,-167]],"properties":{"id":206,"nome":"Palmeiras de São José"}},{"type":"Polygon","arcs":[[1030,1031]],"properties":{"id":207,"nome":"Parque Independencia"}},{"type":"Polygon","arcs":[[1032,-1022,1033,1034,-317,1035,1036,-440,1037,1038,-672,1039,-180,1040,-362,1041]],"properties":{"id":208,"nome":"Parque Industrial"}},{"type":"MultiPolygon","arcs":[[[-868,1042,1043]],[[-874]],[[-73,1044,-52,1045,1046,-872,1047,-333,-338,1048]]],"properties":{"id":209,"nome":"Parque Interlagos"}},{"type":"Polygon","arcs":[[-902,1049,-507,1050,1051,-1008,-905,1052]],"properties":{"id":210,"nome":"Parque Martim Cererê"}},{"type":"Polygon","arcs":[[-915,1053,1054,1055,1056,-715,-933,1057,-936]],"properties":{"id":211,"nome":"Parque Nova Esperança"}},{"type":"Polygon","arcs":[[-913,-764,-962,1058,-1055,1059]],"properties":{"id":212,"nome":"Parque Novo Horizonte"}},{"type":"Polygon","arcs":[[1060,1061,1062,1063,-433]],"properties":{"id":213,"nome":"Parque Residencial Aquarius"}},{"type":"Polygon","arcs":[[1064,1065,1066,-1052]],"properties":{"id":214,"nome":"Parque Residencial Flamboyant"}},{"type":"Polygon","arcs":[[-802,1067,1068,1069,-900,1070]],"properties":{"id":215,"nome":"Parque Santa Rita"}},{"type":"Polygon","arcs":[[-907,-1012,-942,1071]],"properties":{"id":216,"nome":"Parque Santos Dumont"}},{"type":"Polygon","arcs":[[1072,1073,1074,-487,1075]],"properties":{"id":217,"nome":"Parque dos Ipês"}},{"type":"Polygon","arcs":[[1076,1077,1078,1079]],"properties":{"id":218,"nome":"Portal de Minas"}},{"type":"Polygon","arcs":[[1080,-961,1081,-909]],"properties":{"id":219,"nome":"Portal do Céu"}},{"type":"Polygon","arcs":[[1082,-217,-309,-63,-377]],"properties":{"id":220,"nome":"Portal dos Passaros"}},{"type":"Polygon","arcs":[[1083,-695,1084,-30,1085,-716]],"properties":{"id":221,"nome":"Primavera 1B"}},{"type":"MultiPolygon","arcs":[[[-845,1086,1087,1088,-876,1089]],[[1090,-946,-24,-866]]],"properties":{"id":222,"nome":"Putim"}},{"type":"Polygon","arcs":[[1091,1092,-601]],"properties":{"id":223,"nome":"Recanto Caeté"}},{"type":"Polygon","arcs":[[1093,-973,-753,1094,-1010]],"properties":{"id":224,"nome":"Recanto dos Eucaliptos"}},{"type":"Polygon","arcs":[[-366,1095]],"properties":{"id":225,"nome":"Recanto dos Pinheiros"}},{"type":"Polygon","arcs":[[1096,1097,-600]],"properties":{"id":226,"nome":"Residencial Alto dos Ypês"}},{"type":"Polygon","arcs":[[1098,-71,1099]],"properties":{"id":227,"nome":"Residencial Altos do Bosque"}},{"type":"Polygon","arcs":[[1100,1101,1102,-135,-81]],"properties":{"id":228,"nome":"Residencial Ana Maria"}},{"type":"MultiPolygon","arcs":[[[-350,1103,-390,1104]],[[1105,-394,-831,1106,-125,1107]]],"properties":{"id":229,"nome":"Residencial Armando Moreira Righi"}},{"type":"Polygon","arcs":[[-184,1108,-809,1109,-1073,1110,1111,1112]],"properties":{"id":230,"nome":"Residencial Bosque dos Ipês"}},{"type":"Polygon","arcs":[[1113,1114]],"properties":{"id":231,"nome":"Residencial Cambuí"}},{"type":"Polygon","arcs":[[-140,1115,1116]],"properties":{"id":232,"nome":"Residencial Dom Bosco"}},{"type":"Polygon","arcs":[[1117,-1086,-34,1118,-419,-720]],"properties":{"id":233,"nome":"Residencial Dunamis"}},{"type":"Polygon","arcs":[[1119,-723,1120,-124,1121,1122]],"properties":{"id":234,"nome":"Residencial Frei Galvão"}},{"type":"Polygon","arcs":[[1123,-1112,1124,-69]],"properties":{"id":235,"nome":"Residencial Gazzo"}},{"type":"MultiPolygon","arcs":[[[-259,1125,1126,1127,1128]],[[1129]]],"properties":{"id":236,"nome":"Residencial Interlagos"}},{"type":"Polygon","arcs":[[1130,-992,1131,1132]],"properties":{"id":237,"nome":"Residencial Jatobá"}},{"type":"Polygon","arcs":[[1133,1134,1135,1136]],"properties":{"id":238,"nome":"Residencial Juritis"}},{"type":"Polygon","arcs":[[1137,-293,1138,1139,-344,1140,1141,-1088]],"properties":{"id":239,"nome":"Residencial Pinheirinho dos Palmares II"}},{"type":"Polygon","arcs":[[1142,1143,1144]],"properties":{"id":240,"nome":"Residencial Planalto"}},{"type":"Polygon","arcs":[[-566,1145,-389,1146]],"properties":{"id":241,"nome":"Residencial Ribeira"}},{"type":"Polygon","arcs":[[-650,1147]],"properties":{"id":242,"nome":"Residencial Sol Nascente"}},{"type":"Polygon","arcs":[[-881,1148,-94,-968,1149,1150]],"properties":{"id":243,"nome":"Residencial São Francisco"}},{"type":"Polygon","arcs":[[1151,-358,1152,1153,1154,1155]],"properties":{"id":244,"nome":"Residencial Tatetuba"}},{"type":"Polygon","arcs":[[1156,1157,-888,1158,-570,1159,1160,1161,1162]],"properties":{"id":245,"nome":"Residencial União"}},{"type":"Polygon","arcs":[[-364,1163,1164]],"properties":{"id":246,"nome":"Residencial de Ville"}},{"type":"Polygon","arcs":[[-575,-163,1165,-254,1166,-215]],"properties":{"id":247,"nome":"Rio Comprido"}},{"type":"Polygon","arcs":[[1167,-220,1168,-924,-399,-850,-955]],"properties":{"id":248,"nome":"Ronda"}},{"type":"MultiPolygon","arcs":[[[-590,1169,-965,1170]],[[1171,1172,-967,-741]]],"properties":{"id":249,"nome":"Santa Cecília II"}},{"type":"Polygon","arcs":[[1173]],"properties":{"id":250,"nome":"Santa Lúcia"}},{"type":"Polygon","arcs":[[1174,1175,-550,1176,-663,1177,1178,1179,1180,1181,1182,1183,-428]],"properties":{"id":251,"nome":"Santana"}},{"type":"Polygon","arcs":[[-310,-224,-221,1184,1185,-3]],"properties":{"id":252,"nome":"Serrote"}},{"type":"Polygon","arcs":[[-92,1186,-89,1187,-322,1188,1189,-969]],"properties":{"id":253,"nome":"Setville Altos de São José"}},{"type":"Polygon","arcs":[[-123]],"properties":{"id":254,"nome":"São Francisco Xavier"}},{"type":"Polygon","arcs":[[1190,1191,-1137,1192,-879,1193,1194]],"properties":{"id":255,"nome":"Torrão de Ouro II"}},{"type":"Polygon","arcs":[[1195,1196,-1003,1197,-244,-307,1198,1199,1200,1201,1202,-204,1203,1204,1205],[1206,-1006,1207,-1004]],"properties":{"id":256,"nome":"Urbanova"}},{"type":"MultiPolygon","arcs":[[[1208,1209,1210]],[[1211,-1203]]],"properties":{"id":257,"nome":"Urbanova I"}},{"type":"Polygon","arcs":[[1212,1213,1214,1215,1216,1217,-1196,1218]],"properties":{"id":258,"nome":"Urbanova III"}},{"type":"Polygon","arcs":[[1219,-1205,1220]],"properties":{"id":259,"nome":"Urbanova IV-A"}},{"type":"Polygon","arcs":[[1221,1222]],"properties":{"id":260,"nome":"Urbanova V"}},{"type":"Polygon","arcs":[[-238,1223,-1216,1224,1225]],"properties":{"id":261,"nome":"Urbanova VI"}},{"type":"Polygon","arcs":[[-239,-1226,1226,-1214,1227,1228]],"properties":{"id":262,"nome":"Urbanova VII"}},{"type":"Polygon","arcs":[[-1136,-1132,-991,-846,-1090,-875,-1193]],"properties":{"id":263,"nome":"Vila Adriana"}},{"type":"Polygon","arcs":[[1229,1230,-454,1231,-817,1232,1233,1234,1235]],"properties":{"id":264,"nome":"Vila Adyana"}},{"type":"MultiPolygon","arcs":[[[-1181,1236,1237]],[[1238,-1179]]],"properties":{"id":265,"nome":"Vila Alexandrina"}},{"type":"Polygon","arcs":[[1239,-593,1240,1241,1242,1243,1244,-785]],"properties":{"id":266,"nome":"Vila Betânia"}},{"type":"Polygon","arcs":[[-810,-111,1245,-822,1246]],"properties":{"id":267,"nome":"Vila Cardoso"}},{"type":"Polygon","arcs":[[-660,1247,1248,1249,1250]],"properties":{"id":268,"nome":"Vila Cristina"}},{"type":"Polygon","arcs":[[1251,1252,-771,1253,-658,1254,1255,-596,1256,1257]],"properties":{"id":269,"nome":"Vila Cândida"}},{"type":"MultiPolygon","arcs":[[[1258,1259,1260]],[[1261,1262,1263,-425]]],"properties":{"id":270,"nome":"Vila Dirce"}},{"type":"Polygon","arcs":[[-460,1264,-457,1265,1266,1267,1268,-202,1269]],"properties":{"id":271,"nome":"Vila Ema"}},{"type":"Polygon","arcs":[[-4,-1186,1270,-134,1271,1272,1273]],"properties":{"id":272,"nome":"Vila Ester"}},{"type":"Polygon","arcs":[[-1267,1274,1275]],"properties":{"id":273,"nome":"Vila Guaianazes"}},{"type":"Polygon","arcs":[[1276,1277,-985,1278,-1017,1279]],"properties":{"id":274,"nome":"Vila Guarani"}},{"type":"Polygon","arcs":[[1280,1281,1282]],"properties":{"id":275,"nome":"Vila Higienópolis"}},{"type":"Polygon","arcs":[[1283,-983,1284,-563,1285,1286,1287,-1143,1288]],"properties":{"id":276,"nome":"Vila Industrial"}},{"type":"Polygon","arcs":[[1289,1290,1291,-779]],"properties":{"id":277,"nome":"Vila Iracema"}},{"type":"Polygon","arcs":[[1292,1293,-1080,1294]],"properties":{"id":278,"nome":"Vila Jaci"}},{"type":"Polygon","arcs":[[1295,1296]],"properties":{"id":279,"nome":"Vila Letônia"}},{"type":"Polygon","arcs":[[1297,-116]],"properties":{"id":280,"nome":"Vila Lourdes da Silva Monteiro (São Francisco Xavier)"}},{"type":"Polygon","arcs":[[1298,1299,1300,-108,1301],[1302]],"properties":{"id":281,"nome":"Vila Maria"}},{"type":"Polygon","arcs":[[-479,1303,1304]],"properties":{"id":282,"nome":"Vila Mascarenhas Ferraz"}},{"type":"Polygon","arcs":[[-712,1305,1306,-975,1307]],"properties":{"id":283,"nome":"Vila Monterrey"}},{"type":"Polygon","arcs":[[1308,-102,1309,1310,1311,1312,1313,-411,1314]],"properties":{"id":284,"nome":"Vila Nair"}},{"type":"Polygon","arcs":[[-1244,1315,1316]],"properties":{"id":285,"nome":"Vila Nova Conceição"}},{"type":"Polygon","arcs":[[-661,1317,1318,1319]],"properties":{"id":286,"nome":"Vila Nova Cristina"}},{"type":"MultiPolygon","arcs":[[[1320]],[[-1303]]],"properties":{"id":287,"nome":"Vila Nova São José"}},{"type":"Polygon","arcs":[[-291,1321,-1252,1322,-9]],"properties":{"id":288,"nome":"Vila Paiva"}},{"type":"Polygon","arcs":[[1323,1324,-188,-893]],"properties":{"id":289,"nome":"Vila Patrícia"}},{"type":"MultiPolygon","arcs":[[[-1021]],[[1325,1326]]],"properties":{"id":290,"nome":"Vila Progresso"}},{"type":"Polygon","arcs":[[1327,1328,1329]],"properties":{"id":291,"nome":"Vila Rangel"}},{"type":"Polygon","arcs":[[-945,1330,-777,-836,-26]],"properties":{"id":292,"nome":"Vila Rica"}},{"type":"Polygon","arcs":[[1331,-1250,1332,1333,1334,1335]],"properties":{"id":293,"nome":"Vila Rossi"}},{"type":"Polygon","arcs":[[-1233,1336,1337,1338]],"properties":{"id":294,"nome":"Vila Rubi"}},{"type":"MultiPolygon","arcs":[[[-814,1339,1340,1341,1342]],[[1343,1344]]],"properties":{"id":295,"nome":"Vila Sanches"}},{"type":"Polygon","arcs":[[-477,1345]],"properties":{"id":296,"nome":"Vila Santa Helena"}},{"type":"Polygon","arcs":[[1346,1347,-534,1348]],"properties":{"id":297,"nome":"Vila Santa Rita"}},{"type":"MultiPolygon","arcs":[[[1349,-1176,1350,1351]],[[1352,1353]]],"properties":{"id":298,"nome":"Vila Sinhá"}},{"type":"Polygon","arcs":[[1354,1355,-800,1356]],"properties":{"id":299,"nome":"Vila São Benedito"}},{"type":"Polygon","arcs":[[-1311,1357,1358,-904,-864,1359,-789]],"properties":{"id":300,"nome":"Vila São Bento"}},{"type":"Polygon","arcs":[[1360,1361,-11,1362,1363,1364,1365,1366,1367,-373,1368,1369],[1370,1371]],"properties":{"id":301,"nome":"Vila São Geraldo"}},{"type":"Polygon","arcs":[[1372,1373]],"properties":{"id":302,"nome":"Vila São Pedro"}},{"type":"Polygon","arcs":[[-1287,1374,-516,1375,-1154,1376]],"properties":{"id":303,"nome":"Vila Tatetuba"}},{"type":"Polygon","arcs":[[1377,-1334,1378,-1299,1379]],"properties":{"id":304,"nome":"Vila Terezinha"}},{"type":"Polygon","arcs":[[-1273,1380,-892,1381,1382]],"properties":{"id":305,"nome":"Vila Tesouro"}},{"type":"Polygon","arcs":[[-122,-379,-311,-58,-275,1383]],"properties":{"id":306,"nome":"Vila Unidos"}},{"type":"MultiPolygon","arcs":[[[1384,-1367]],[[1385,-1372]]],"properties":{"id":307,"nome":"Vila Veneziani"}},{"type":"Polygon","arcs":[[-429,-1184,1386,-472,1387]],"properties":{"id":308,"nome":"Vila Zizinha"}},{"type":"Polygon","arcs":[[-700,-512,1388,-40,1389,-637]],"properties":{"id":309,"nome":"Vila das Flores"}},{"type":"Polygon","arcs":[[1390,-1161]],"properties":{"id":310,"nome":"Águas da Prata"}},{"type":"Polygon","arcs":[[-681,1391,-119,1392]],"properties":{"id":311,"nome":"Área Rural de São Francisco Xavier"}},{"type":"Polygon","arcs":[[1393,1394]],"properties":{"id":312,"nome":"Área Rural de São José dos Campos"}}]}},"arcs":[[[57990,32955],[1237,6180]],[[59227,39135],[3512,-1735]],[[62739,37400],[4093,-3738]],[[66832,33662],[-1961,-1665]],[[64871,31997],[-3041,-936]],[[61830,31061],[-3840,1894]],[[44431,34938],[838,1117]],[[45269,36055],[3305,-1735],[1557,-134]],[[50131,34186],[425,-237],[8,-416]],[[50564,33533],[978,-44],[119,-359]],[[51661,33130],[-1172,308]],[[50489,33438],[59,-636],[-2331,-271]],[[48217,32531],[-3786,2407]],[[29898,29901],[3116,5665]],[[33014,35566],[10488,-1556]],[[43502,34010],[-8,-1477]],[[43494,32533],[-4140,-3064]],[[39354,29469],[-5424,-237]],[[33930,29232],[-4032,669]],[[51011,18847],[112,499]],[[51123,19346],[649,74]],[[51772,19420],[318,-273]],[[52090,19147],[-1079,-300]],[[65847,9805],[781,2060]],[[66628,11865],[2119,-36]],[[68747,11829],[759,-508]],[[69506,11321],[-52,-982],[-1467,-2122]],[[67987,8217],[-658,-208]],[[67329,8009],[-1482,1796]],[[89035,17958],[1581,3343]],[[90616,21301],[2766,709]],[[93382,22010],[1183,5],[424,-724],[704,-2886],[4306,-4426],[-2463,-185],[-1561,-1572],[-1185,294],[-1928,-1776],[-1338,178],[-613,-143]],[[90911,10775],[-282,2668]],[[90629,13443],[-1594,4515]],[[59357,4566],[1731,465]],[[61088,5031],[1925,-369]],[[63013,4662],[5494,-3337]],[[68507,1325],[251,-428]],[[68758,897],[-1506,-897],[-3106,369],[-2551,1417],[-1980,-265]],[[59615,1521],[-258,3045]],[[54989,14409],[2269,149]],[[57258,14558],[1079,-261]],[[58337,14297],[1449,-907]],[[59786,13390],[-424,-1064]],[[59362,12326],[-1861,-247]],[[57501,12079],[-230,-843],[380,-204],[-28,-589]],[[57623,10443],[344,-247],[-642,75]],[[57325,10271],[-559,-485]],[[56766,9786],[1072,-281],[-479,-750]],[[57359,8755],[57,-455],[336,-181]],[[57752,8119],[-88,-332]],[[57664,7787],[-854,-104]],[[56810,7683],[-1739,1938],[430,1396]],[[55501,11017],[750,314],[192,636]],[[56443,11967],[-1454,2442]],[[57481,12952],[186,179]],[[57667,13131],[-96,359],[-90,-538]],[[9305,32773],[19845,14966]],[[29150,47739],[4138,-8973]],[[33288,38766],[-274,-3200]],[[29898,29901],[-20593,2872]],[[49228,43540],[1255,7715]],[[50483,51255],[9451,-6512]],[[59934,44743],[-2270,-3078]],[[57664,41665],[-8436,1875]],[[85777,40621],[261,536],[997,-2024],[1218,-267],[337,1117],[1056,-771],[1014,651],[1271,-1278],[-1103,-259],[-929,-1737],[487,-748]],[[90386,35841],[-3804,3695],[-805,1085]],[[50411,6150],[2890,1857]],[[53301,8007],[898,253]],[[54199,8260],[911,-296]],[[55110,7964],[179,257],[949,130]],[[56238,8351],[559,-742],[536,-149],[-559,-136]],[[56774,7324],[-334,-402]],[[56440,6922],[-1361,-324],[-375,-381],[-225,194],[-575,-306]],[[53904,6105],[-626,520]],[[53278,6625],[-1307,-400]],[[51971,6225],[-1560,-75]],[[72787,21786],[1068,512]],[[73855,22298],[619,1339]],[[74474,23637],[2714,952]],[[77188,24589],[502,-124]],[[77690,24465],[748,-644],[62,-1132]],[[78500,22689],[-339,-709],[1698,-1303]],[[79859,20677],[-160,-415]],[[79699,20262],[-1193,-726]],[[78506,19536],[-1064,-1152]],[[77442,18384],[-492,-92],[-222,-678]],[[76728,17614],[-567,89],[130,879]],[[76291,18582],[-565,-249],[202,449],[-546,-80],[-660,650],[-450,1032],[-1485,1402]],[[68820,19915],[54,1101],[650,1054]],[[69524,22070],[1793,-19],[1227,-320]],[[72544,21731],[-508,-2629],[-341,-593]],[[71695,18509],[-888,-331]],[[70807,18178],[-1490,781],[-497,956]],[[57716,20659],[750,202]],[[58466,20861],[-181,638],[1056,-308]],[[59341,21191],[932,597],[90,514]],[[60363,22302],[782,446]],[[61145,22748],[411,-71],[839,-783]],[[62395,21894],[483,-1569],[-1050,-1876]],[[61828,18449],[-3770,1819]],[[58058,20268],[-342,391]],[[78801,26519],[610,457]],[[79411,26976],[740,-412],[-165,-534]],[[79986,26030],[-396,-30],[-789,519]],[[57481,12952],[90,540],[96,-361]],[[54564,24978],[3129,1134]],[[57693,26112],[965,-200],[846,224],[293,-605]],[[59797,25531],[-228,-114]],[[59569,25417],[-132,-912]],[[59437,24505],[-1002,-330],[-489,-518]],[[57946,23657],[-789,15],[-473,-528],[-469,87]],[[56215,23231],[-176,-167],[-1475,1914]],[[12838,68259],[1785,1215],[-46,5312],[2535,3802],[-804,3149],[-1483,577],[-370,1433],[6327,2377],[4885,-928],[1750,1920],[2484,471],[-70,1609],[4104,848],[3017,2011],[1201,-419],[1007,1496],[1526,897],[3483,130],[487,420]],[[44656,94579],[-6006,-12940]],[[38650,81639],[-2086,-1123],[1302,102]],[[37866,80618],[740,720]],[[38606,81338],[1219,-1603]],[[39825,79735],[18613,-2195]],[[58438,77540],[-657,-675],[-2958,-876],[352,-1327],[2792,-2100],[-1118,-1335],[1757,-1736],[-2450,-1195],[-1354,-2972],[-5750,-2874],[-3133,-3378]],[[45919,59072],[-2102,3596],[-13261,-1867]],[[30556,60801],[-17718,7458]],[[38645,79558],[-350,773],[-238,-151],[231,-758],[357,136]],[[83394,27859],[59,1157]],[[83453,29016],[702,-740]],[[84155,28276],[-761,-417]],[[82584,27820],[-432,-190]],[[82152,27630],[-549,145]],[[81603,27775],[-176,532],[999,-393],[158,-94]],[[71858,31921],[968,-1282]],[[72826,30639],[-179,-1262]],[[72647,29377],[-753,-1388]],[[71894,27989],[-1423,-187]],[[70471,27802],[-399,342],[145,862],[1641,2915]],[[77690,24465],[1017,748]],[[78707,25213],[161,-506],[-251,-715]],[[78617,23992],[869,236],[549,-96]],[[80035,24132],[461,-293]],[[80496,23839],[-29,-228]],[[80467,23611],[-1967,-922]],[[78617,23992],[233,1090],[592,-83]],[[79442,24999],[251,-296],[225,275],[314,-256]],[[80232,24722],[-197,-590]],[[55341,39104],[2295,1674]],[[57636,40778],[1591,-1643]],[[57990,32955],[-1043,101]],[[56947,33056],[-1511,865]],[[55436,33921],[-95,5183]],[[43502,34010],[929,928]],[[48217,32531],[-37,-742]],[[48180,31789],[-1110,-822]],[[47070,30967],[-1470,-283]],[[45600,30684],[-2106,1849]],[[79008,17703],[1092,1203]],[[80100,18906],[-401,1356]],[[79859,20677],[1056,86]],[[80915,20763],[1278,-1598],[882,122]],[[83075,19287],[722,-573]],[[83797,18714],[-879,-962]],[[82918,17752],[-166,-791]],[[82752,16961],[-2000,47]],[[80752,17008],[-787,624],[-957,71]],[[43988,10534],[479,1048]],[[44467,11582],[963,334]],[[45430,11916],[28,636],[1434,598],[-83,648]],[[46809,13798],[1576,630]],[[48385,14428],[323,-810]],[[48708,13618],[-970,-1155]],[[47738,12463],[691,-1123]],[[48429,11340],[44,-1442],[-955,-727]],[[47518,9171],[-2060,1011],[-574,-161]],[[44884,10021],[-896,513]],[[66131,20176],[2122,2285]],[[68253,22461],[1271,-391]],[[68820,19915],[-603,-897],[-424,8]],[[67793,19026],[-254,797],[-562,-348],[-440,73],[-406,628]],[[50763,9964],[551,350],[-147,410]],[[51167,10724],[421,310],[-460,717]],[[51128,11751],[641,612]],[[51769,12363],[-77,471],[406,-6]],[[52098,12828],[202,438],[186,22],[78,-528]],[[52564,12760],[618,-334]],[[53182,12426],[1186,79],[258,-725],[-874,-907]],[[53752,10873],[214,-439],[-165,-464]],[[53801,9970],[-1845,-510]],[[51956,9460],[-797,118],[-396,386]],[[68773,25781],[1651,975]],[[70424,26756],[756,-55]],[[71180,26701],[334,-485]],[[71514,26216],[983,-379],[72,552]],[[72569,26389],[435,355],[582,-247],[213,373]],[[73799,26870],[1493,153],[380,-489],[-1211,-2202]],[[74461,24332],[13,-695]],[[73855,22298],[-1311,-567]],[[72544,21731],[-2304,381]],[[70240,22112],[-587,3076],[-880,593]],[[56678,26157],[295,59],[-191,-355]],[[56782,25861],[-104,296]],[[51441,19434],[238,903],[838,-395]],[[52517,19942],[-579,-453],[-497,-55]],[[52898,19238],[26,373]],[[52924,19611],[566,259]],[[53490,19870],[125,-901],[-717,269]],[[42604,17581],[906,2760],[709,954]],[[44219,21295],[1094,819]],[[45313,22114],[792,-585]],[[46105,21529],[1529,-289]],[[47634,21240],[-447,-1588]],[[47187,19652],[-2448,-1496],[-2135,-575]],[[45952,23028],[137,852]],[[46089,23880],[909,-655]],[[46998,23225],[458,-1133]],[[47456,22092],[-1504,936]],[[40686,9972],[1646,1023],[518,63]],[[42850,11058],[517,-338],[-238,-1191]],[[43129,9529],[-378,-106],[-2065,549]],[[65114,46720],[4787,6084]],[[69901,52804],[8729,-8445],[1014,-2533],[1105,-716]],[[80749,41110],[-4345,-2913]],[[76404,38197],[-2882,-966]],[[73522,37231],[-2526,2269]],[[70996,39500],[-4572,5179]],[[66424,44679],[-1310,2041]],[[70996,39500],[-6019,-94]],[[64977,39406],[1447,5273]],[[49415,26199],[2986,112]],[[52401,26311],[975,-909]],[[53376,25402],[-1907,-2211]],[[51469,23191],[-1131,-496]],[[50338,22695],[-590,106]],[[49748,22801],[-623,1641],[290,1757]],[[50338,22695],[44,-297]],[[50382,22398],[-1128,-306],[494,709]],[[29197,23941],[611,3253]],[[29808,27194],[7522,-4209],[569,601]],[[37899,23586],[1380,392]],[[39279,23978],[1081,-745]],[[40360,23233],[-1011,-1062]],[[39349,22171],[-1682,447],[-1701,-1203]],[[35966,21415],[16,569],[-3095,-1217],[-251,620],[-3439,2554]],[[40006,23662],[818,927],[882,239]],[[41706,24828],[1630,-45]],[[43336,24783],[298,-964]],[[43634,23819],[-386,-477]],[[43248,23342],[-1480,-321]],[[41768,23021],[-1064,88],[-698,553]],[[41217,25871],[973,1323],[134,722]],[[42324,27916],[3388,-37]],[[45712,27879],[771,-1174],[-1814,-1146],[-883,-293]],[[43786,25266],[-450,-483]],[[43336,24783],[-1540,-8],[-579,1096]],[[55014,22877],[-406,-45]],[[54608,22832],[251,469],[155,-424]],[[43975,9766],[396,436]],[[44371,10202],[492,-102],[21,-79]],[[44884,10021],[-909,-255]],[[77349,25665],[191,728]],[[77540,26393],[608,57]],[[78148,26450],[-232,-811]],[[77916,25639],[-567,26]],[[77245,25563],[-57,-974]],[[77188,24589],[-424,-47]],[[76764,24542],[-72,930],[553,91]],[[37390,29263],[1964,206]],[[39354,29469],[2970,-1553]],[[41217,25871],[409,-456],[80,-587]],[[41706,24828],[-1002,-327]],[[40704,24501],[-468,296]],[[40236,24797],[401,4]],[[40637,24801],[117,367]],[[40754,25168],[-91,149],[-523,-131],[-499,388],[673,576],[-200,390]],[[40114,26540],[-2724,2723]],[[71180,26701],[1066,-49]],[[72246,26652],[417,-414],[-158,-401],[-991,379]],[[2608,31467],[6697,1306]],[[9305,32773],[20485,-2931]],[[29790,29842],[18,-2648]],[[29197,23941],[-823,611],[-2826,-1636],[316,-1073],[-3053,377],[-171,-935],[-3080,2466],[-5348,406],[-632,793],[960,1382],[-670,361],[-2678,705],[-2603,-1566],[-779,2169],[-4006,-248],[-2236,2362],[1040,1352]],[[29790,29842],[2931,-475]],[[32721,29367],[4394,-4266]],[[37115,25101],[2164,-1123]],[[37899,23586],[-569,-603],[-7522,4211]],[[58337,14297],[150,220]],[[58487,14517],[458,-279],[186,465]],[[59131,14703],[342,-1140]],[[59473,13563],[-1136,734]],[[45269,36055],[2008,1168]],[[47277,37223],[1835,-27]],[[49112,37196],[931,-2205]],[[50043,34991],[746,-226]],[[50789,34765],[13,-380],[-671,-199]],[[77439,12012],[746,983]],[[78185,12995],[864,-799]],[[79049,12196],[-65,-441],[-1545,257]],[[39631,25072],[214,228],[909,-132]],[[40637,24801],[-885,-214]],[[39752,24587],[-121,485]],[[40114,26540],[94,-591],[-686,-318],[-5388,3593],[3256,39]],[[32721,29367],[1209,-135]],[[33930,29232],[5701,-4160]],[[39631,25072],[-65,-1147]],[[39566,23925],[-2451,1176]],[[43786,25266],[2821,1372]],[[46607,26638],[36,-1768]],[[46643,24870],[-600,-1049]],[[46043,23821],[-1366,-188]],[[44677,23633],[-1043,186]],[[57636,40778],[28,887]],[[59934,44743],[5180,1977]],[[64977,39406],[-2238,-2006]],[[29150,47739],[1651,6619]],[[30801,54358],[5662,-4721],[10250,-6684]],[[46713,42953],[-580,-920],[-3708,-1243],[-4212,-1839]],[[38213,38951],[-4925,-185]],[[50815,16342],[54,754]],[[50869,17096],[1027,-204]],[[51896,16892],[-409,-770],[-414,-49]],[[51073,16073],[-258,269]],[[49200,18704],[1377,1017],[546,-375]],[[51123,19346],[-176,-611],[-857,-644]],[[50090,18091],[-890,613]],[[74640,16062],[25,710],[738,90],[246,-357]],[[75649,16505],[-238,-353]],[[75411,16152],[-771,-90]],[[71433,10318],[158,312],[515,139]],[[72106,10769],[-331,-1250]],[[71775,9519],[-342,799]],[[57752,8119],[1056,408]],[[58808,8527],[422,-622]],[[59230,7905],[-306,-850]],[[58924,7055],[-1270,768],[98,296]],[[56751,5712],[429,267]],[[57180,5979],[2120,-742]],[[59300,5237],[191,-490]],[[59491,4747],[-134,-181]],[[59357,4566],[-1556,26]],[[57801,4592],[-1050,1120]],[[56575,6661],[404,58],[201,-740]],[[56751,5712],[52,-217],[998,-903]],[[57801,4592],[-2686,441],[347,754],[-768,412],[584,477],[1403,-235],[-106,220]],[[82454,13437],[7274,-1926]],[[89728,11511],[1183,-736]],[[90911,10775],[-753,-173],[-1144,738],[-1309,-1953],[-1607,-53],[-344,-1666],[-1121,-823]],[[84633,6845],[-5369,4951],[3190,1641]],[[53904,6105],[575,308],[719,-349],[318,-522],[-196,-289],[-378,165]],[[54942,5418],[-564,-236]],[[54378,5182],[-474,923]],[[81740,40896],[901,793],[222,-1863],[2008,298],[145,-1073],[761,1570]],[[90386,35841],[528,-813],[-96,-316]],[[90818,34712],[-2114,793]],[[88704,35505],[-1444,-602],[-132,-1345]],[[87128,33558],[-758,-241],[-572,-621]],[[85798,32696],[-500,291],[-181,216],[293,406]],[[85410,33609],[-686,1109]],[[84724,34718],[-453,1704],[-2531,4474]],[[63756,25046],[574,63]],[[64330,25109],[378,-328],[-435,-404]],[[64273,24377],[-517,669]],[[48708,13618],[1108,-754],[704,549],[-148,-530]],[[50372,12883],[616,-280]],[[50988,12603],[-65,-208],[-367,-20],[-277,-775]],[[50279,11600],[499,-51]],[[50778,11549],[24,-293],[-645,-131]],[[50157,11125],[-28,310],[-650,280],[-525,-378]],[[48954,11337],[-481,-2]],[[48473,11335],[761,459],[-213,126],[-747,-395]],[[48274,11525],[-536,938]],[[49115,21976],[1267,422]],[[50382,22398],[83,489],[1004,304]],[[51469,23191],[-178,-726]],[[51291,22465],[-717,-202],[-109,-583]],[[50465,21680],[-1350,296]],[[52590,31316],[171,-239]],[[52761,31077],[-477,-100]],[[52284,30977],[-333,257],[639,82]],[[45919,59072],[-652,-725],[848,-1340],[-755,-684],[2137,-1099],[507,275]],[[48004,55499],[2479,-4244]],[[49228,43540],[-2515,-587]],[[30801,54358],[-245,6443]],[[47518,9171],[1076,731]],[[48594,9902],[733,-495]],[[49327,9407],[678,63]],[[50005,9470],[264,-206],[546,-984]],[[50815,8280],[-546,-1935],[-2197,2555],[-554,271]],[[80749,41110],[712,-461],[279,247]],[[81740,40896],[3030,-5748],[-46,-430]],[[84724,34718],[-800,-893]],[[83924,33825],[955,-1084],[10,-604]],[[84889,32137],[986,-664],[-77,1223]],[[87128,33558],[3418,-2774]],[[90546,30784],[225,-412],[-685,-1466]],[[90086,28906],[-4697,-389]],[[85389,28517],[-616,648]],[[84773,29165],[-31,1095]],[[84742,30260],[-1770,71],[-1594,-1944]],[[81378,28387],[-1247,130]],[[80131,28517],[-777,1380],[-1304,187]],[[78050,30084],[-233,1446]],[[77817,31530],[872,151],[329,483]],[[79018,32164],[660,-119],[949,-668],[658,161],[-989,940],[326,199],[1532,-177],[-859,1164]],[[81295,33664],[-2769,2336],[-2122,2197]],[[55721,18227],[1087,-140],[541,-378],[-16,-315],[-380,-331],[-645,-49],[-587,1213]],[[55341,39104],[-2984,-1435]],[[52357,37669],[-3245,-473]],[[47277,37223],[-2192,-1231]],[[45085,35992],[-367,326],[-6505,2633]],[[47070,30967],[1462,-626]],[[48532,30341],[158,-418],[-365,-898]],[[48325,29025],[-2598,-1097],[-127,2756]],[[57064,18983],[-249,135],[684,253]],[[57499,19371],[183,348],[1501,-165],[-1247,-483],[-802,96],[344,-402]],[[57478,18765],[251,55],[-26,-507]],[[57703,18313],[-285,395],[-121,-481]],[[57297,18227],[-334,-30]],[[56963,18197],[-184,356],[285,430]],[[81758,15908],[31,1027]],[[81789,16935],[350,161],[613,-135]],[[82752,16961],[3967,-2572]],[[86719,14389],[3009,-2878]],[[89728,11511],[-5760,1608]],[[83968,13119],[-2210,2789]],[[45600,30684],[127,-2754],[2598,1095]],[[48325,29025],[331,393],[-124,923]],[[48532,30341],[1121,-2]],[[49653,30339],[62,-346]],[[49715,29993],[900,-294],[-116,-336]],[[50499,29363],[1374,-179],[593,-304]],[[52466,28880],[496,-1423]],[[52962,27457],[-561,-1146]],[[49415,26199],[-2808,439]],[[46607,26638],[-895,1241]],[[49360,16556],[140,878],[590,657]],[[50090,18091],[779,-995]],[[50815,16342],[233,-259],[-1325,-257]],[[49723,15826],[20,662],[-383,68]],[[74461,24332],[1012,1690],[825,298]],[[76298,26320],[344,-589],[122,-1189]],[[76764,24542],[-2290,-905]],[[52828,15086],[323,51],[127,473]],[[53278,15610],[-212,212]],[[53066,15822],[388,607],[637,137],[432,4],[-365,-779],[929,9],[140,-390],[592,69]],[[55819,15479],[-830,-1070]],[[54989,14409],[-510,-102],[-453,310]],[[54026,14617],[-1128,135]],[[52898,14752],[-70,334]],[[53136,17037],[893,632]],[[54029,17669],[535,-1068]],[[54564,16601],[-965,-163],[-463,599]],[[56893,22432],[577,-316],[-398,-148],[-179,464]],[[56795,22828],[416,-74],[-302,-269]],[[56909,22485],[-114,343]],[[54694,22098],[530,151]],[[55224,22249],[-378,-726],[-313,-67],[161,642]],[[55617,22922],[-729,495]],[[54888,23417],[-238,1174],[1092,-1300],[258,-214],[-383,-155]],[[53043,21346],[672,717],[852,78],[246,-200],[-407,-1096]],[[54406,20845],[-553,411]],[[53853,21256],[-598,-118],[-212,208]],[[52077,20961],[174,161],[688,28]],[[52939,21150],[-450,-713]],[[52489,20437],[-412,524]],[[52077,20961],[847,-1350]],[[52898,19238],[-808,-91]],[[51772,19420],[745,522]],[[52517,19942],[-978,617],[538,402]],[[57770,22302],[2096,589]],[[59866,22891],[497,-589]],[[60363,22302],[-227,-526]],[[60136,21776],[-523,402],[-1009,-35],[-262,-202],[-572,361]],[[52691,16870],[445,167]],[[53136,17037],[447,-320],[-41,-261],[-851,414]],[[53074,25720],[2706,1696]],[[55780,27416],[1292,298]],[[57072,27714],[621,-1602]],[[57693,26112],[-432,-243],[-2495,-911],[-497,171]],[[54269,25129],[2055,1142]],[[56324,26271],[-26,224]],[[56298,26495],[-675,90]],[[55623,26585],[-1773,-1299]],[[53850,25286],[-776,434]],[[56782,25861],[178,369],[-282,-73]],[[52357,37669],[437,-2605]],[[52794,35064],[-1353,-338],[-1398,265]],[[65042,31750],[2528,-3814],[-204,-459]],[[67366,27477],[-559,216]],[[66807,27693],[-1765,4057]],[[54437,8622],[-196,-356]],[[54241,8266],[-42,-6]],[[54199,8260],[-90,405],[328,-43]],[[80312,24781],[429,181]],[[80741,24962],[342,889],[1043,-53]],[[82126,25798],[621,-1026]],[[82747,24772],[-378,-212]],[[82369,24560],[-1219,212]],[[81150,24772],[-253,-324],[-42,318],[-543,15]],[[39566,23925],[186,662]],[[39752,24587],[484,210]],[[40704,24501],[-698,-839]],[[40006,23662],[-440,263]],[[54181,4566],[197,616]],[[54942,5418],[541,-575],[409,102],[-407,-367]],[[55485,4578],[107,-579],[-389,-183],[-207,-491]],[[54996,3325],[-349,187]],[[54647,3512],[36,722],[-502,332]],[[65241,19483],[481,-669]],[[65722,18814],[-680,-342]],[[65042,18472],[-135,544],[319,147],[-352,2],[367,318]],[[66752,27298],[614,179]],[[67366,27477],[295,-269]],[[67661,27208],[-311,-438],[-510,133],[-88,395]],[[55485,4578],[433,383],[1529,-419]],[[57447,4542],[-704,-647],[-965,-430]],[[55778,3465],[-293,1113]],[[57359,8755],[580,781],[890,-920]],[[58829,8616],[-1077,-497]],[[67456,22810],[422,2645]],[[67878,25455],[895,326]],[[70240,22112],[-716,-42]],[[69524,22070],[-2068,740]],[[51291,22465],[344,952]],[[51635,23417],[942,-732]],[[52577,22685],[215,591]],[[52792,23276],[189,-440],[998,0]],[[53979,22836],[39,-179],[-742,-157],[-697,183],[-18,-259]],[[52561,22424],[-1133,-524],[417,-316]],[[51845,21584],[139,522],[202,-116],[505,285],[116,-332],[-504,-244]],[[52303,21699],[755,-516],[-1250,-253]],[[51808,20930],[-553,736]],[[51255,21666],[-790,14]],[[53979,22836],[624,-4],[-440,-367],[54,-324]],[[54217,22141],[-698,-155],[-476,-640]],[[53043,21346],[-740,353]],[[51845,21584],[-433,227],[303,365],[846,248]],[[52372,22971],[412,364]],[[52784,23335],[253,881],[267,-891],[-272,-479]],[[53032,22846],[-240,430]],[[52577,22685],[-205,286]],[[57501,12079],[1713,265],[748,-1141]],[[59962,11203],[-1327,-577]],[[58635,10626],[-922,100]],[[57713,10726],[-445,510],[233,843]],[[47668,21666],[98,-190]],[[47766,21476],[-132,-236]],[[46105,21529],[-706,543],[2269,-406]],[[53946,20164],[222,218],[663,-314]],[[54831,20068],[-21,-536]],[[54810,19532],[-499,28]],[[54311,19560],[-365,604]],[[52284,30977],[363,8]],[[52647,30985],[64,-399]],[[52711,30586],[-553,-128],[-378,246]],[[51780,30704],[-639,-432]],[[51141,30272],[-502,652],[905,777],[740,-724]],[[53278,6625],[1027,-1072],[-124,-987]],[[54647,3512],[-652,-6],[-450,1131]],[[53545,4637],[-777,-34],[-1974,552]],[[50794,5155],[-368,952],[1545,118]],[[65557,27706],[724,-602]],[[66281,27104],[471,194]],[[66752,27298],[88,-393],[510,-133],[311,436]],[[67366,27477],[251,357],[344,-1060],[797,-990],[-880,-329]],[[67878,25455],[-507,341],[-1141,-208]],[[66230,25588],[-88,344],[-593,339],[267,338]],[[65816,26609],[-578,292],[319,805]],[[85410,33609],[-202,-522]],[[85208,33087],[-520,-194]],[[84688,32893],[-764,932]],[[51956,9460],[1032,332],[269,-328]],[[53257,9464],[-75,-285]],[[53182,9179],[-401,-143]],[[52781,9036],[-825,424]],[[36771,15824],[4808,948]],[[41579,16772],[3765,-1690],[1465,-1284]],[[45430,11916],[-288,-230],[-675,-104]],[[44467,11582],[-603,338],[-1014,-862]],[[40686,9972],[-3490,2595],[-378,1237],[303,556],[-1856,681],[1594,365],[-88,418]],[[58360,10432],[-647,294]],[[58635,10626],[-275,-194]],[[89009,22308],[494,3037]],[[89503,25345],[1698,1643]],[[91201,26988],[688,-658],[362,-3050],[862,-1272],[269,2]],[[90616,21301],[-1607,1007]],[[66807,27693],[204,-183],[-238,-145],[34,328]],[[54831,20068],[-233,126],[-267,33],[401,173],[99,-332]],[[78506,19536],[776,414]],[[79282,19950],[-365,-983],[1183,-61]],[[79008,17703],[-194,-28],[-101,369],[183,770],[-652,277],[262,445]],[[77442,18384],[722,677],[732,-245],[-305,-1359]],[[78591,17457],[-1395,-243]],[[77196,17214],[-468,400]],[[55056,20683],[334,-240]],[[55390,20443],[212,118],[26,-132],[-275,-229]],[[55353,20200],[-227,365]],[[55126,20565],[-267,-297],[-714,185],[215,271],[696,-41]],[[53229,31811],[93,436],[417,693]],[[53739,32940],[313,-1347]],[[54052,31593],[-823,218]],[[63013,4662],[461,1683],[1612,1009],[2215,545]],[[67301,7899],[1206,-6574]],[[48180,31789],[1530,77]],[[49710,31866],[468,-296]],[[50178,31570],[1366,151]],[[51544,31721],[-1493,-1528]],[[50051,30193],[-1519,148]],[[72826,30639],[401,-165]],[[73227,30474],[1407,-2204],[-101,-844]],[[74533,27426],[399,-387],[-1133,-169]],[[72569,26389],[-323,263]],[[72246,26652],[-1009,106],[1410,2619]],[[52970,24693],[406,709]],[[53376,25402],[1188,-424]],[[54564,24978],[324,-1561]],[[54888,23417],[-280,-585]],[[54608,22832],[-1576,14]],[[53032,22846],[288,714],[-350,1133]],[[74554,30074],[2246,-354]],[[76800,29720],[652,-1474]],[[77452,28246],[-797,-320],[-502,-632]],[[76153,27294],[-1599,2780]],[[76298,26320],[326,228]],[[76624,26548],[916,-155]],[[77540,26393],[-295,-830]],[[77245,25563],[-659,-12],[-288,769]],[[80035,24132],[277,649]],[[81150,24772],[412,-185]],[[81562,24587],[-169,-618]],[[81393,23969],[-897,-130]],[[81399,21725],[-34,-705]],[[81365,21020],[-450,-257]],[[79859,20677],[-1700,1303],[1441,326],[1144,-35],[655,-546]],[[81098,23441],[324,543]],[[81422,23984],[476,-172]],[[81898,23812],[-533,-583]],[[81365,23229],[-267,212]],[[53646,2314],[150,548]],[[53796,2862],[1425,218],[298,-141]],[[55519,2939],[329,-945]],[[55848,1994],[-2202,320]],[[51415,3543],[1369,558],[147,-183],[929,28]],[[53860,3946],[321,-532]],[[54181,3414],[-352,-273]],[[53829,3141],[-1055,328]],[[52774,3469],[-1175,-179]],[[51599,3290],[-184,253]],[[64586,31850],[285,147]],[[64871,31997],[171,-247]],[[66807,27693],[-21,-377],[-505,-212]],[[65557,27706],[-971,4144]],[[54989,14409],[696,-1025],[-244,-697]],[[55441,12687],[-364,67]],[[55077,12754],[-456,-263],[-683,343]],[[53938,12834],[298,232]],[[54236,13066],[-127,414],[-810,-379],[-153,-561],[-582,220]],[[52564,12760],[-91,542],[1121,814],[1395,293]],[[60136,21776],[-795,-585]],[[58466,20861],[-626,-29],[-321,728]],[[57519,21560],[-465,234],[716,508]],[[55097,31536],[1850,1520]],[[56947,33056],[787,-93]],[[57734,32963],[-1656,-2293]],[[56078,30670],[-468,-119]],[[55610,30551],[-334,206]],[[55276,30757],[-179,779]],[[79282,19950],[417,312]],[[79699,20262],[354,-1281],[-1154,29],[383,940]],[[77452,28246],[-93,469]],[[77359,28715],[533,-218],[-124,-416],[787,-226],[-590,-290],[903,-901]],[[78868,26664],[-1672,-295],[-572,179]],[[76624,26548],[-471,746]],[[52165,14042],[733,710]],[[54026,14617],[248,-246],[-1676,-873]],[[52598,13498],[-433,544]],[[78707,25213],[391,944]],[[79098,26157],[1780,-353]],[[80878,25804],[-137,-842]],[[80741,24962],[-509,-240]],[[80232,24722],[-324,258],[-352,-252],[-114,271]],[[79442,24999],[-735,214]],[[38606,81338],[6050,13241]],[[44656,94579],[2670,2311],[562,1592],[2564,1517],[2164,-542],[-1160,-2073],[805,-950],[3020,-1042],[769,-1115],[-792,-2538],[1040,-175],[272,-1304]],[[56570,90260],[-17416,-9583]],[[39154,80677],[-548,661]],[[49728,13578],[450,-263]],[[50178,13315],[-269,-439],[-642,188],[-354,493],[815,21]],[[57325,10271],[639,-77],[-341,249]],[[57623,10443],[184,144],[553,-155]],[[58360,10432],[1602,771]],[[59962,11203],[487,-228],[879,-1425]],[[61328,9550],[-833,-797]],[[60495,8753],[-1133,593],[-533,-730]],[[58829,8616],[-626,830],[-1437,340]],[[87236,20914],[293,942]],[[87529,21856],[1480,452]],[[89009,22308],[919,-695]],[[89928,21613],[-1105,-510],[-1587,-189]],[[55056,20683],[427,304],[184,-102],[-277,-442]],[[53796,2862],[385,552]],[[54181,3414],[466,98]],[[54996,3325],[523,640],[259,-500]],[[55778,3465],[-259,-526]],[[76195,27139],[429,-591]],[[76624,26548],[-1006,-387],[-26,519],[603,459]],[[53182,12426],[298,550],[805,-454],[-1103,-96]],[[54127,15816],[106,397],[474,353],[432,-707],[-1012,-43]],[[81422,23984],[140,603]],[[81562,24587],[807,-27]],[[82369,24560],[-471,-748]],[[80467,23611],[238,318],[688,40]],[[81393,23969],[-295,-528]],[[81098,23441],[-631,170]],[[78591,17457],[417,246]],[[80752,17008],[-29,-418],[-1570,-595]],[[79153,15995],[-562,1462]],[[83220,19240],[1059,814]],[[84279,20054],[1850,550],[753,-263]],[[86882,20341],[520,-893]],[[87402,19448],[-3605,-734]],[[83797,18714],[-577,526]],[[82918,17752],[874,799]],[[83792,18551],[2927,-4162]],[[81828,28737],[748,1337],[383,243]],[[82959,30317],[-67,-1690]],[[82892,28627],[-233,-267],[-831,377]],[[79411,26976],[443,226],[277,1315]],[[81378,28387],[225,-612]],[[81603,27775],[404,-145]],[[82007,27630],[-26,-921],[530,-504]],[[82511,26205],[-385,-407]],[[82126,25798],[-1248,6]],[[80878,25804],[-892,226]],[[76800,29720],[1250,364]],[[78050,30084],[1304,-185],[777,-1382]],[[80131,28517],[-280,-1319],[-983,-534]],[[77359,28715],[-559,1005]],[[82253,27420],[-101,210]],[[82152,27630],[1074,137]],[[83226,27767],[-246,-1290]],[[82980,26477],[-469,-272]],[[82511,26205],[-626,926],[368,289]],[[71332,15174],[1331,-119],[1006,433]],[[73669,15488],[929,-304],[425,216]],[[75023,15400],[789,-257],[579,-779]],[[76391,14364],[-1032,-809],[-1804,-185]],[[73555,13370],[-33,-324],[-319,49]],[[73203,13095],[-561,-528]],[[72642,12567],[-965,175]],[[71677,12742],[-225,410]],[[71452,13152],[698,397],[-411,220]],[[71739,13769],[196,441]],[[71935,14210],[-603,964]],[[69635,12944],[1462,734],[-158,246]],[[70939,13924],[-497,-2],[-654,1107]],[[69788,15029],[724,501]],[[70512,15530],[463,-12]],[[70975,15518],[960,-1308]],[[71739,13769],[414,-220],[-701,-397]],[[71677,12742],[-575,-224]],[[71102,12518],[-1467,426]],[[54621,21059],[505,-231],[-70,-145]],[[55056,20683],[-696,43],[261,333]],[[82126,25798],[854,679]],[[82980,26477],[913,-239],[1061,167]],[[84954,26405],[373,-954],[-192,-913]],[[85135,24538],[-1589,-4]],[[83546,24534],[-799,238]],[[82007,27630],[145,0]],[[82253,27420],[-295,-122],[49,332]],[[49148,10946],[-520,355],[613,-27],[194,-220],[-287,-108]],[[52794,35064],[2642,-1143]],[[55436,33921],[207,-273]],[[55643,33648],[-1700,-583],[-1493,585]],[[52450,33650],[-96,558],[440,856]],[[68913,14746],[875,283]],[[70939,13924],[117,-318],[-1421,-662]],[[69635,12944],[-722,1802]],[[45085,35992],[-1583,-1982]],[[70406,11480],[637,465]],[[71043,11945],[-241,507],[300,66]],[[71102,12518],[725,-644],[-443,-196]],[[71384,11678],[520,-408],[-233,-175],[-88,326]],[[71583,11421],[-577,-226],[-600,285]],[[52851,17622],[1219,1070]],[[54070,18692],[440,726]],[[54510,19418],[300,114]],[[54810,19532],[991,-418]],[[55801,19114],[510,43]],[[56311,19157],[652,-960]],[[56963,18197],[1395,-243]],[[58358,17954],[352,-1082],[701,-261]],[[59411,16611],[458,-1119],[2140,-1176]],[[62009,14316],[-2223,-926]],[[59786,13390],[-313,173]],[[59131,14703],[-186,-467],[-458,281]],[[58487,14517],[-357,-248],[-872,289]],[[57258,14558],[-1273,-200],[-911,139],[745,982]],[[55819,15479],[-724,17],[72,544],[-603,561]],[[54564,16601],[-357,945],[-178,123]],[[54029,17669],[-883,-598],[-295,551]],[[54070,18692],[-624,683],[179,389],[885,-346]],[[62395,21894],[944,70]],[[63339,21964],[1209,360]],[[64548,22324],[-213,-862],[-450,-259]],[[63885,21203],[104,-210],[-1108,-603]],[[62881,20390],[-486,1504]],[[54629,11780],[541,365]],[[55170,12145],[403,-153],[508,283]],[[56081,12275],[362,-308]],[[56443,11967],[-189,-636],[-753,-314]],[[55501,11017],[-569,253],[-303,510]],[[57946,23657],[215,-299]],[[58161,23358],[-360,-281],[-82,-573]],[[57719,22504],[-826,-72]],[[56893,22432],[303,-801]],[[57196,21631],[-458,-273]],[[56738,21358],[246,-306],[-158,-222]],[[56826,20830],[-968,620]],[[55858,21450],[29,687],[349,306]],[[56236,22443],[-445,324],[424,464]],[[56909,22485],[289,298],[-403,45]],[[67666,27795],[784,-277],[-383,-756]],[[68067,26762],[-311,454],[-90,579]],[[59866,22891],[482,960],[375,-126]],[[60723,23725],[274,277],[562,-777],[-507,-183],[93,-294]],[[61145,22748],[-947,-47]],[[60198,22701],[-332,190]],[[90086,28906],[-163,-348],[838,-1030]],[[90761,27528],[-3739,-277],[-1509,-387]],[[85513,26864],[-753,940],[2060,-459]],[[86820,27345],[-1304,620],[-771,-53],[-187,299],[831,306]],[[83226,27767],[1185,556]],[[84411,28323],[362,842]],[[86820,27345],[-2057,459],[750,-940]],[[85513,26864],[-295,-147]],[[85218,26717],[-939,455],[-386,-261],[-72,-632]],[[83821,26279],[-841,198]],[[69506,11321],[900,159]],[[71583,11421],[96,-353],[471,-191]],[[72150,10877],[-717,-559]],[[71433,10318],[474,-1904]],[[71907,8414],[-3920,-197]],[[73203,13095],[319,-47],[33,322]],[[76391,14364],[2146,363]],[[78537,14727],[486,-159]],[[79023,14568],[-1584,-2556]],[[77439,12012],[-1242,-253]],[[76197,11759],[-685,335]],[[75512,12094],[-197,638],[-1553,155],[-465,-365]],[[73297,12522],[-585,65],[491,508]],[[75923,29926],[1568,1748]],[[77491,31674],[326,-144]],[[76800,29720],[-877,206]],[[73227,30474],[1327,-400]],[[74554,30074],[973,-1849],[430,-283],[238,-803]],[[76195,27139],[-593,-361],[-1069,648]],[[50499,29363],[365,724]],[[50864,30087],[683,297]],[[51547,30384],[1180,-768]],[[52727,29616],[-261,-736]],[[56081,12275],[-510,-283],[-401,153]],[[54629,11780],[-251,713],[755,-85],[202,224],[251,-218],[96,161],[393,-131],[6,-169]],[[57719,22504],[82,253],[611,87],[34,-308],[-862,-401],[-398,206],[533,163]],[[58808,8527],[554,821],[1133,-595]],[[61328,9550],[-1966,2776]],[[62009,14316],[836,38]],[[62845,14354],[217,-222]],[[63062,14132],[-887,-2487],[2880,-1765],[792,-75]],[[67329,8009],[-4357,-1193]],[[62972,6816],[183,-426],[-460,-493],[-207,-1037]],[[62488,4860],[-1400,171]],[[61088,5031],[-1597,-284]],[[59491,4747],[-341,1313]],[[59150,6060],[1780,826],[-91,401],[-1728,61]],[[59111,7348],[119,557]],[[62229,6716],[398,-379],[-111,390],[-981,-21],[-196,-837],[890,847]],[[75460,6474],[341,3795],[469,932]],[[76270,11201],[3276,-2852]],[[79546,8349],[2805,-3184]],[[82351,5165],[-1175,-2140],[-2427,-271]],[[78749,2754],[-3289,3720]],[[65241,19483],[72,291],[818,402]],[[67793,19026],[-295,-358]],[[67498,18668],[-572,375]],[[66926,19043],[-795,18],[-409,-247]],[[49358,10055],[473,893]],[[49831,10948],[686,106],[611,697]],[[51167,10724],[150,-410],[-554,-350]],[[50763,9964],[168,-271]],[[50931,9693],[-310,-157]],[[50621,9536],[93,-532],[-205,-117],[-504,583]],[[49327,9407],[-546,457],[577,191]],[[68067,26762],[297,532]],[[68364,27294],[376,2],[181,261],[1379,4]],[[70300,27561],[124,-805]],[[68773,25781],[-706,981]],[[50372,12883],[564,870]],[[50936,13753],[637,-124],[-99,-565]],[[51474,13064],[-486,-461]],[[61828,18449],[1053,1941]],[[62881,20390],[1447,666],[170,325],[629,-316],[29,-263],[559,65]],[[65715,20867],[489,-465]],[[66204,20402],[-562,-581],[-1167,-28]],[[64475,19793],[347,-361],[-83,-308],[-1265,-249]],[[63474,18875],[-1030,-576],[-616,150]],[[62845,14354],[145,1034]],[[62990,15388],[2898,1039]],[[65888,16427],[91,-1125]],[[65979,15302],[-2192,-1364]],[[63787,13938],[-942,416]],[[87192,22966],[1791,-240]],[[88983,22726],[26,-418]],[[87529,21856],[-337,1110]],[[81352,22557],[1017,2003]],[[83546,24534],[-313,-567],[-559,-206]],[[82674,23761],[-147,-1528]],[[82527,22233],[-727,-1142]],[[81800,21091],[-435,-71]],[[81399,21725],[499,608],[-546,224]],[[47187,19652],[579,1824]],[[47766,21476],[1349,500]],[[49115,21976],[1498,-436],[642,126]],[[51808,20930],[-367,-1496]],[[51441,19434],[-318,-88]],[[49200,18704],[-2013,948]],[[79018,32164],[-241,1164]],[[78777,33328],[-2145,4570],[4663,-4234]],[[41579,16772],[1025,809]],[[49200,18704],[724,-587],[-564,-1561]],[[49360,16556],[383,-70],[-20,-660]],[[49723,15826],[1350,247]],[[51073,16073],[-49,-997],[-1226,96]],[[49798,15172],[-215,-514]],[[49583,14658],[-1423,-255],[-1351,-605]],[[83070,20635],[438,-255],[292,87],[479,-413]],[[83220,19240],[-341,801],[191,594]],[[80915,20763],[885,328]],[[81800,21091],[1084,-12]],[[82884,21079],[191,-1792]],[[53938,12834],[-603,83],[248,422],[585,116],[68,-389]],[[46089,23880],[554,990]],[[49748,22801],[-633,-825]],[[47766,21476],[-768,1749]],[[66180,12832],[1103,1013]],[[67283,13845],[1630,901]],[[68913,14746],[769,-1949]],[[69682,12797],[-935,-968]],[[66628,11865],[-448,967]],[[53545,4637],[315,-691]],[[51415,3543],[-621,1612]],[[81399,21725],[-47,832]],[[48990,10461],[158,485]],[[49148,10946],[683,2]],[[49831,10948],[-163,-279]],[[49668,10669],[-678,-208]],[[70437,34361],[2158,1814]],[[72595,36175],[4896,-4501]],[[75923,29926],[-1369,148]],[[74554,30074],[-1728,565]],[[72826,30639],[-2389,3722]],[[84954,26405],[559,459]],[[90761,27528],[440,-540]],[[89503,25345],[-3578,-1315]],[[85925,24030],[-790,508]],[[74875,16014],[536,138]],[[75649,16505],[437,14]],[[76086,16519],[507,-514],[929,-258]],[[77522,15747],[1015,-1020]],[[75023,15400],[-148,614]],[[69456,17202],[1351,976]],[[71695,18509],[367,-698],[2052,-401],[-370,-636],[-471,-257]],[[73273,16517],[396,-1029]],[[73669,15488],[-1004,-433],[-1333,119]],[[71332,15174],[-357,344]],[[70512,15530],[-1056,1672]],[[78922,14660],[1483,1213]],[[80405,15873],[1229,593]],[[81634,16466],[124,-558]],[[83968,13119],[-5046,1541]],[[85218,26717],[-264,-312]],[[84954,26405],[-1133,-126]],[[60573,28845],[1257,2216]],[[61830,31061],[2756,789]],[[65557,27706],[-306,-653]],[[65251,27053],[-1371,-360],[-163,-477],[-1022,307],[-567,549]],[[62128,27072],[-326,-396]],[[61802,26676],[-885,-208]],[[60917,26468],[-414,433],[70,1944]],[[52774,3469],[838,-146],[217,-182]],[[53829,3141],[-183,-827]],[[53646,2314],[-1064,154],[-983,822]],[[72642,12567],[655,-45]],[[75512,12094],[-1532,-608]],[[73980,11486],[-766,184]],[[73214,11670],[-453,393],[-119,504]],[[45313,22114],[47,206],[1418,49]],[[46778,22369],[678,-277]],[[47456,22092],[212,-426]],[[47668,21666],[-2355,448]],[[79153,15995],[-231,-1335]],[[78922,14660],[-385,67]],[[77522,15747],[-370,1314],[1439,396]],[[41884,21819],[-116,1202]],[[41768,23021],[797,162]],[[42565,23183],[36,-1323],[-717,-41]],[[41377,21554],[735,-161]],[[42112,21393],[-88,-339],[-152,302]],[[41872,21356],[-264,-83]],[[41608,21273],[-83,-1407],[-148,1688]],[[65888,16427],[580,455]],[[66468,16882],[1117,-29]],[[67585,16853],[16,-1047],[957,-1132]],[[68558,14674],[-1275,-829]],[[67283,13845],[-536,1316],[-768,141]],[[33930,29232],[4914,-3041],[1009,-846],[-222,-273]],[[59463,24499],[106,918]],[[59569,25417],[564,458]],[[60133,25875],[-181,538]],[[59952,26413],[802,-36],[173,-347],[733,106]],[[61660,26136],[349,-1009],[911,-463]],[[62920,24664],[155,-568],[-1664,-481],[-675,479],[-1103,57],[355,554]],[[59988,24705],[-525,-206]],[[60117,24724],[438,-247],[155,75],[-282,286],[-311,-114]],[[51764,14022],[-39,-355]],[[51725,13667],[-590,123],[252,181],[377,51]],[[48594,9902],[396,559]],[[49668,10669],[-310,-614]],[[49358,10055],[-764,-153]],[[48385,14428],[1198,230]],[[49798,15172],[1314,-149],[-176,-1270]],[[50936,13753],[-758,-438]],[[49728,13578],[-1020,40]],[[48594,9902],[-111,975],[-54,463]],[[48429,11340],[753,-565],[-588,-873]],[[51474,13064],[251,603]],[[51764,14022],[-828,-269]],[[50936,13753],[-70,155],[298,746],[-91,1419]],[[51896,16892],[795,-22]],[[52691,16870],[760,-512],[-385,-536]],[[53278,15610],[-127,-475],[-323,-49]],[[52828,15086],[-111,-699],[-552,-345]],[[52598,13498],[-500,-670]],[[51769,12363],[-390,-471],[-601,-343]],[[50279,11600],[-3,276],[1198,1188]],[[62972,6816],[357,-40],[222,-602],[-538,-1512]],[[63013,4662],[-525,198]],[[56774,7324],[549,22],[-513,337]],[[57664,7787],[1260,-732]],[[58924,7055],[187,293]],[[59150,6060],[150,-823]],[[56575,6661],[109,-220],[-968,235],[13,208],[711,38]],[[64475,19793],[696,63],[70,-373]],[[65042,18472],[-412,-443]],[[64630,18029],[1248,-397],[590,-750]],[[62990,15388],[-929,2874],[1413,613]],[[82527,22233],[1400,-706]],[[83927,21527],[698,96],[831,791]],[[85456,22414],[2073,-558]],[[87529,21856],[-647,-1515]],[[83070,20635],[-186,444]],[[85925,24030],[-469,-1616]],[[83927,21527],[-937,398],[-549,526],[233,1310]],[[50090,18091],[921,756]],[[51011,18847],[937,126],[598,337],[1516,-620],[-1211,-1068]],[[52851,17622],[285,-585]],[[53136,17037],[-699,-208],[-1568,267]],[[64630,18029],[1206,906],[1090,108]],[[66926,19043],[846,-687],[235,-1327]],[[68007,17029],[-1539,-147]],[[64548,22324],[657,571]],[[65205,22895],[2212,-77],[836,-357]],[[68253,22461],[-2049,-2059]],[[65715,20867],[-629,-20],[-334,548],[-525,-396],[-342,204]],[[66180,12832],[-2393,1106]],[[54122,8875],[696,69],[385,461]],[[55203,9405],[476,-367],[-175,-403],[-720,-163],[-178,-274]],[[54606,8198],[-365,68]],[[54437,8622],[-346,74],[31,179]],[[55656,29991],[469,197]],[[56125,30188],[1648,-497]],[[57773,29691],[-342,-134]],[[57431,29557],[-1775,434]],[[87192,22966],[-1267,1064]],[[89503,25345],[-520,-2619]],[[48004,55499],[9515,5149],[-209,-1769],[1697,-2061],[5634,-2000],[1304,-1418],[1250,-123],[1395,838],[1311,-1311]],[[86882,20341],[354,573]],[[89928,21613],[688,-312]],[[89035,17958],[-1633,1490]],[[77439,12012],[614,-195]],[[78053,11817],[1369,-1466]],[[79422,10351],[2732,-4937],[-2608,2935]],[[76270,11201],[-73,558]],[[63062,14132],[3118,-1300]],[[49710,31866],[352,259]],[[50062,32125],[1273,-345],[-1157,-210]],[[67585,16853],[1871,349]],[[69788,15029],[-1230,-355]],[[48473,11335],[-199,190]],[[48180,31789],[60,756],[1558,314],[357,-180]],[[50155,32679],[-80,-536],[-365,-277]],[[54606,8198],[1035,598],[597,-445]],[[55110,7964],[-504,234]],[[77188,24589],[161,1076]],[[77349,25665],[1488,-14]],[[78837,25651],[-130,-438]],[[90818,34712],[-877,-2821],[605,-1107]],[[87128,33558],[-57,986],[424,577],[1209,384]],[[82959,30317],[1783,-57]],[[84411,28323],[-256,-47]],[[83453,29016],[-494,1301]],[[53752,10873],[877,907]],[[55501,11017],[-344,-601],[46,-1011]],[[54122,8875],[-228,453]],[[53894,9328],[-637,136]],[[53257,9464],[-173,328],[717,178]],[[63588,23077],[1617,-182]],[[65205,22895],[-896,-705],[-941,-190],[-513,467],[733,610]],[[80467,23611],[898,-382]],[[81365,23229],[-93,-1272],[-1066,390],[-2026,-343],[320,685]],[[83792,18551],[896,420],[2714,477]],[[90629,13443],[129,-2468],[-1030,536]],[[81378,28387],[450,350]],[[82892,28627],[95,1563],[466,-1174]],[[83394,27859],[-810,-39]],[[82584,27820],[-1206,567]],[[53301,8007],[-44,1457]],[[53894,9328],[305,-1068]],[[78148,26450],[653,69]],[[78801,26519],[297,-362]],[[79098,26157],[-261,-506]],[[78837,25651],[-921,-12]],[[63298,6437],[333,526],[1258,292],[-453,-435],[-1138,-383]],[[72106,10769],[536,732],[572,169]],[[73980,11486],[-660,-1830]],[[73320,9656],[-1214,1113]],[[71907,8414],[-132,1105]],[[71775,9519],[432,1064],[1113,-927]],[[73320,9656],[-60,-1584]],[[73260,8072],[-1353,342]],[[78053,11817],[980,-47],[16,426]],[[78185,12995],[838,1573]],[[79023,14568],[3431,-1131]],[[84633,6845],[-2282,-1680]],[[82351,5165],[-2929,5186]],[[62299,24905],[404,840],[895,-367],[176,-300]],[[63774,25078],[-854,-414]],[[62920,24664],[-621,241]],[[85208,33087],[590,-391]],[[84889,32137],[-201,756]],[[55441,12687],[182,461],[471,-685],[-1212,81],[195,210]],[[67793,19026],[548,74],[479,815]],[[69456,17202],[-1449,-173]],[[68007,17029],[-509,1639]],[[62920,24664],[836,382]],[[64273,24377],[474,391],[-73,-1100]],[[64674,23668],[505,-759]],[[65179,22909],[-1923,329]],[[63256,23238],[-336,1426]],[[50411,6150],[404,2130]],[[50815,8280],[-295,397],[305,428],[-204,431]],[[50931,9693],[1550,-380],[300,-277]],[[53182,9179],[-305,-404]],[[52877,8775],[236,-61]],[[53113,8714],[188,-707]],[[53301,8007],[-458,-459],[-1640,-721],[-792,-677]],[[50157,11125],[-326,-177]],[[49831,10948],[-877,389]],[[43988,10534],[383,-332]],[[43975,9766],[-846,-237]],[[72595,36175],[927,1056]],[[76404,38197],[2373,-4869]],[[77196,17214],[326,-1467]],[[76086,16519],[-21,1180],[663,-85]],[[73669,15488],[5,413]],[[73674,15901],[1201,113]],[[87192,22966],[104,-954],[-1842,429],[10,585],[450,888],[1278,-948]],[[52466,28880],[667,1535]],[[53133,30415],[-422,171]],[[52647,30985],[2450,551]],[[55276,30757],[-267,-1166]],[[55009,29591],[-88,-273],[-484,-55],[932,-265],[91,612]],[[55460,29610],[1084,-98]],[[56544,29512],[-489,-241]],[[56055,29271],[890,-1525]],[[56945,27746],[-686,-362],[-2440,485]],[[53819,27869],[-857,-412]],[[73522,37231],[-3085,-2870]],[[70437,34361],[-3605,-699]],[[72544,21731],[243,55]],[[76291,18582],[-156,-2026],[-486,-51]],[[74640,16062],[-966,-161]],[[73674,15901],[-401,616]],[[67301,7899],[686,318]],[[67987,8217],[1669,134],[2251,63]],[[73260,8072],[2200,-1598]],[[78749,2754],[-2145,903],[-3147,-1362],[-2927,434],[-49,-807],[-1723,-1025]],[[68758,897],[-1457,7002]],[[39667,20775],[357,247],[285,-257],[-130,328],[425,-34]],[[40604,21059],[-55,318],[945,652],[390,-210]],[[42565,23183],[683,159]],[[44677,23633],[5,-909]],[[44682,22724],[1270,304]],[[45952,23028],[826,-659]],[[46778,22369],[-2132,84]],[[44646,22453],[-107,-591],[-618,471],[-373,-422],[-481,59],[-248,-508],[406,-330],[354,318],[640,-155]],[[42604,17581],[-924,-719]],[[41680,16862],[-722,1989]],[[40958,18851],[230,497],[-1521,1427]],[[41377,21554],[96,-1582],[52,-104],[83,1405]],[[41872,21356],[152,-300],[88,337]],[[44682,22724],[28,938],[1333,159]],[[46043,23821],[-91,-793]],[[45952,23028],[-512,-265],[-758,-39]],[[44646,22453],[690,-161],[-318,-532],[-799,-465]],[[39196,21010],[538,550],[331,-190]],[[40065,21370],[407,243],[-11,326]],[[40461,21939],[681,157]],[[41142,22096],[176,911]],[[41318,23007],[450,14]],[[41768,23021],[54,-866],[-1229,-732],[11,-364]],[[39667,20775],[-471,235]],[[39424,16364],[69,1986],[1320,189],[145,312]],[[41680,16862],[-681,-337],[-1575,-161]],[[39424,16364],[-2653,-540]],[[36771,15824],[-155,736],[1193,96],[334,1137],[1226,-312],[36,257],[19,-1374]],[[40360,23233],[958,-226]],[[41142,22096],[-1289,-454]],[[39853,21642],[-504,529]],[[39853,21642],[608,297]],[[40065,21370],[-253,221],[-435,-235],[-181,-346]],[[39196,21010],[217,-80],[-1928,-350],[-727,493],[-828,-789],[36,1131]],[[54197,22487],[817,390]],[[55014,22877],[-126,540]],[[55617,22922],[477,53],[-301,-208],[443,-324]],[[55858,21450],[-668,-173],[-134,-322]],[[55056,20955],[-435,104]],[[54621,21059],[-111,279],[714,911]],[[55224,22249],[-354,-27],[-104,318],[-569,-53]],[[56544,29512],[937,40],[-1048,-956]],[[56433,28596],[-378,675]],[[55009,29591],[451,19]],[[54810,19532],[316,1033]],[[55353,20200],[360,522]],[[55713,20722],[500,-147],[747,327],[440,-318]],[[57400,20584],[-222,-404]],[[57178,20180],[-916,-455],[-73,-534]],[[56189,19191],[-388,-77]],[[59437,24505],[256,-383],[1237,-120],[-207,-277]],[[59866,22891],[-357,-194],[-1731,129],[383,532]],[[57734,32963],[4096,-1902]],[[61830,31061],[-194,-265]],[[61636,30796],[-3863,-1105]],[[57773,29691],[-1421,361],[-274,618]],[[51562,33438],[867,473]],[[52429,33911],[21,-261]],[[55643,33648],[1304,-592]],[[55097,31536],[-740,-167]],[[54357,31369],[-305,224]],[[53739,32940],[-1843,-65]],[[51896,32875],[-334,563]],[[51547,30384],[233,320]],[[51780,30704],[357,-130],[-189,-267]],[[51948,30307],[-401,77]],[[49653,30339],[398,-146]],[[50051,30193],[373,466],[440,-572]],[[50864,30087],[-122,-306],[-1027,212]],[[52939,21150],[914,106]],[[54406,20845],[-535,32]],[[53871,20877],[-357,-450]],[[53514,20427],[797,-867]],[[54311,19560],[-821,310]],[[52924,19611],[-378,335],[-57,491]],[[70437,34361],[1421,-2440]],[[70471,27802],[-148,-186],[-1749,648]],[[68574,28264],[-2831,2575]],[[65743,30839],[-872,1158]],[[53871,20877],[535,-35],[-460,-678]],[[53946,20164],[-432,263]],[[59263,27172],[1310,1673]],[[60573,28845],[-26,-2065],[370,-312]],[[61802,26676],[-142,-540]],[[59952,26413],[-758,585],[69,174]],[[54217,22141],[-20,346]],[[54197,22487],[709,-22],[-212,-367]],[[54694,22098],[-477,43]],[[61660,26136],[468,936]],[[65251,27053],[565,-444]],[[66230,25588],[-878,102]],[[65352,25690],[-1022,-581]],[[64330,25109],[-556,-31]],[[62299,24905],[-639,1231]],[[71102,12518],[1216,230],[896,-1078]],[[73214,11670],[-751,-284],[-313,-509]],[[72150,10877],[-481,204],[233,189],[-518,408]],[[55009,29591],[62,432],[383,-230]],[[55454,29793],[202,198]],[[57431,29557],[-2422,34]],[[56311,19157],[753,-174]],[[57064,18983],[-119,-313],[-437,185],[-197,302]],[[38650,81639],[-130,-462],[-654,-559]],[[57333,27123],[854,-143],[1076,192]],[[59263,27172],[-41,-740],[621,163],[290,-720]],[[60133,25875],[-336,-344]],[[57693,26112],[-360,1011]],[[58492,26803],[205,-337],[49,406],[-254,-69]],[[55623,26585],[406,-147],[-1760,-1309]],[[54269,25129],[-419,157]],[[80752,17008],[1037,-73]],[[81789,16935],[-155,-469]],[[80405,15873],[-1480,-1203],[228,1325]],[[57426,19727],[-279,176],[168,566],[401,190]],[[58058,20268],[2176,-960]],[[60234,19308],[-1876,-1354]],[[58358,17954],[-482,2],[-579,271]],[[57297,18227],[-11,418],[417,-332]],[[57703,18313],[111,165],[-85,344],[-251,-57]],[[57499,19371],[-422,132],[349,224]],[[57178,20180],[-13,-336],[261,-117]],[[57426,19727],[-347,-505],[-890,-31]],[[56078,30670],[47,-482]],[[56125,30188],[-368,-26]],[[55757,30162],[-147,389]],[[59375,26356],[-29,398],[497,-106],[-468,-292]],[[50789,34765],[1982,279],[-342,-1133]],[[51562,33438],[-998,95]],[[70300,27561],[411,310],[1183,118]],[[71894,27989],[-714,-1288]],[[59463,24499],[432,249],[93,-43]],[[59988,24705],[-106,-336],[-419,130]],[[55276,30757],[481,-595]],[[55757,30162],[-303,-369]],[[55454,29793],[-390,285],[15,375],[197,304]],[[69682,12797],[1058,-116],[303,-736]],[[56433,28596],[1340,1095]],[[61636,30796],[-352,-579]],[[61284,30217],[-3457,-2285]],[[57827,27932],[-882,-186]],[[56945,27746],[-512,850]],[[55858,21450],[471,-230],[-171,-571]],[[56158,20649],[-445,73]],[[55713,20722],[-155,261],[-502,-28]],[[57196,21631],[323,-71]],[[57519,21560],[197,-901]],[[57716,20659],[-316,-75]],[[57400,20584],[-662,774]],[[56158,20649],[130,407],[538,-226]],[[56826,20830],[-119,-149],[-549,-32]],[[56324,26271],[-399,-74],[153,314],[220,-16]],[[51635,23417],[194,408],[1141,868]],[[52970,24693],[-186,-1358]],[[52372,22971],[-737,446]],[[51948,30307],[763,279]],[[53133,30415],[-406,-799]],[[52727,29616],[-631,263],[-148,428]],[[51141,30272],[-277,-185]],[[50864,30087],[-448,691],[290,104],[435,-610]],[[61678,22585],[670,620],[1240,-128]],[[63588,23077],[-704,-465],[455,-648]],[[62395,21894],[-717,691]],[[60234,19308],[1594,-859]],[[61828,18449],[1162,-3061]],[[62009,14316],[-1886,968],[-642,697],[-70,630]],[[50062,32125],[93,554]],[[50155,32679],[445,263],[-111,496]],[[51661,33130],[235,-255]],[[51896,32875],[1827,57],[-494,-1121]],[[53229,31811],[1128,-442]],[[54357,31369],[-771,-218]],[[53586,31151],[-331,334],[-505,-82],[432,-360]],[[53182,31043],[-421,34]],[[52590,31316],[-707,-57],[-339,462]],[[51544,31721],[-683,326],[-799,78]],[[53136,32131],[-784,-334]],[[52352,31797],[375,-251],[409,585]],[[63256,23238],[-1076,-96],[-502,-557]],[[61678,22585],[-634,322],[512,312],[-171,304],[264,271],[1506,257],[101,-813]],[[65352,25690],[792,-139],[1460,204],[274,-300]],[[67456,22810],[-2277,99]],[[64674,23668],[220,939],[-564,502]],[[57072,27714],[755,218]],[[61284,30217],[-2021,-3045]],[[57333,27123],[-261,591]],[[68574,28264],[1726,-703]],[[68364,27294],[60,247],[-758,254]],[[67666,27795],[-1923,3044]],[[2608,31467],[1491,1934],[-1522,1192],[572,905],[-1464,1456],[1990,1119],[-2736,589],[1041,1641],[-1980,2719],[655,2334],[2701,22],[978,1144],[-245,2579],[3998,5901],[-1626,672],[459,1690],[2546,2304],[-132,1210],[1247,2771],[-1025,216],[-108,943],[-2865,779],[1216,1584],[2676,-522],[2363,1610]],[[53586,31151],[-404,-108]],[[52352,31797],[287,277],[497,57]],[[53819,27869],[1961,-453]],[[53074,25720],[-673,591]],[[57447,4542],[1910,24]],[[59615,1521],[-3767,473]],[[52877,8775],[380,296],[-144,-357]],[[56570,90260],[284,-1374],[-256,-958],[2559,71],[2071,850],[219,-2169],[1667,-2195],[-2883,-2340],[-709,-2147],[11,-1337],[-1095,-1121]],[[39825,79735],[-671,942]],[[60198,22701],[419,25],[300,-86],[-554,-338]],[[60363,22302],[-165,399]]],"bbox":[-46.10719,-23.30669,-45.72075,-22.81611],"transform":{"scale":[0.0000038644386443864476,0.0000049058490584905985],"translate":[-46.10719,-23.30669]}}
