{"type":"FeatureCollection","features":[{"type":"Feature","properties":{"nome":"São José dos Campos"},"geometry":{"type":"Polygon","coordinates":[[[-45.89356,-22.83871],[-45.89059,-22.84418],[-45.89365,-22.85663],[-45.88963,-22.85749],[-45.88748,-22.87063],[-45.88847,-22.87533],[-45.87858,-22.87498],[-45.87058,-22.87081],[-45.86973,-22.88145],[-45.86329,-22.89222],[-45.87443,-22.9037],[-45.87717,-22.91423],[-45.87713,-22.92079],[-45.8839,-22.9296],[-45.89533,-22.9339],[-45.89397,-22.94041],[-45.88318,-22.95071],[-45.8875,-22.95726],[-45.88071,-22.96578],[-45.89018,-22.97164],[-45.89541,-22.98622],[-45.91763,-23.00032],[-45.93226,-23.02045],[-45.92898,-23.02702],[-45.9319,-23.03038],[-45.92364,-23.03577],[-45.88491,-23.00916],[-45.88572,-23.01784],[-45.87916,-23.02795],[-45.85739,-23.03776],[-45.85235,-23.04472],[-45.84752,-23.04532],[-45.84213,-23.04121],[-45.80333,-23.08907],[-45.79941,-23.1015],[-45.79239,-23.10727],[-45.78783,-23.10217],[-45.78697,-23.11131],[-45.77921,-23.10985],[-45.77865,-23.11511],[-45.7747,-23.10478],[-45.77085,-23.11471],[-45.76614,-23.11602],[-45.76484,-23.11054],[-45.76076,-23.11432],[-45.75684,-23.11113],[-45.75193,-23.1174],[-45.75619,-23.11867],[-45.75978,-23.12719],[-45.75586,-23.13485],[-45.75962,-23.15024],[-45.75641,-23.15769],[-45.75969,-23.16659],[-45.75209,-23.17752],[-45.75069,-23.19248],[-45.74736,-23.19872],[-45.74175,-23.19869],[-45.74011,-23.20224],[-45.73739,-23.2164],[-45.72075,-23.23811],[-45.73027,-23.23902],[-45.7363,-23.24673],[-45.74088,-23.24529],[-45.74833,-23.254],[-45.7535,-23.25313],[-45.75878,-23.25468],[-45.7632,-23.25105],[-45.76826,-23.26064],[-45.77447,-23.2609],[-45.7758,-23.26907],[-45.78902,-23.28141],[-45.79349,-23.29185],[-45.80377,-23.29331],[-45.81116,-23.28875],[-45.82332,-23.29543],[-45.83463,-23.2933],[-45.83482,-23.29726],[-45.8473,-23.30669],[-45.8593,-23.30488],[-45.86916,-23.29793],[-45.87784,-23.2994],[-45.90399,-23.29458],[-45.90829,-23.29002],[-45.91247,-23.27624],[-45.92142,-23.26303],[-45.93152,-23.25674],[-45.94198,-23.26046],[-45.94904,-23.25871],[-45.96345,-23.24504],[-45.96491,-23.23897],[-45.96374,-23.23624],[-45.97091,-23.2329],[-45.96475,-23.23111],[-45.96569,-23.22545],[-45.96108,-23.22498],[-45.95979,-23.2194],[-45.95505,-23.22093],[-45.95457,-23.21667],[-45.94947,-23.21574],[-45.94802,-23.21177],[-45.95459,-23.20395],[-45.96233,-23.20573],[-45.96514,-23.20331],[-45.96834,-23.20718],[-45.96813,-23.19884],[-45.9801,-23.20481],[-45.98107,-23.20177],[-45.99754,-23.18624],[-46.00847,-23.19427],[-46.00724,-23.19953],[-46.01904,-23.19768],[-46.0197,-23.20227],[-46.0316,-23.19017],[-46.05227,-23.18818],[-46.05471,-23.18429],[-46.051,-23.17751],[-46.05359,-23.17574],[-46.06394,-23.17228],[-46.074,-23.17996],[-46.07701,-23.16932],[-46.09249,-23.17054],[-46.10113,-23.15895],[-46.09135,-23.14283],[-46.09723,-23.13698],[-46.09502,-23.13254],[-46.10068,-23.1254],[-46.09299,-23.11991],[-46.10356,-23.11702],[-46.09954,-23.10897],[-46.10719,-23.09563],[-46.10466,-23.08418],[-46.09421,-23.08407],[-46.09044,-23.07846],[-46.09139,-23.06581],[-46.07594,-23.03686],[-46.08222,-23.03356],[-46.08045,-23.02527],[-46.07061,-23.01397],[-46.07112,-23.00803],[-46.0663,-22.99444],[-46.07026,-22.99338],[-46.07068,-22.98875],[-46.08175,-22.98493],[-46.07705,-22.97716],[-46.06671,-22.97972],[-46.05068,-22.96586],[-46.05086,-22.9398],[-46.04106,-22.92115],[-46.04417,-22.9057],[-46.0499,-22.90287],[-46.05133,-22.89584],[-46.02688,-22.88418],[-46.008,-22.88873],[-46.00124,-22.87931],[-45.99164,-22.877],[-45.99191,-22.86911],[-45.97605,-22.86495],[-45.96439,-22.85508],[-45.95975,-22.85714],[-45.95586,-22.8498],[-45.94996,-22.8454],[-45.9365,-22.84476],[-45.9243,-22.83136],[-45.92213,-22.82355],[-45.91222,-22.81611],[-45.90386,-22.81877],[-45.90834,-22.82894],[-45.90523,-22.8336],[-45.89356,-22.83871]]]}}]}