{"type":"FeatureCollection","features":[{"type":"Feature","properties":{"setor":"12209"},"geometry":{"type":"Polygon","coordinates":[[[-45.90209,-23.18051],[-45.89163,-23.17219],[-45.88978,-23.17235],[-45.88372,-23.16966],[-45.86943,-23.15712],[-45.8671,-23.17388],[-45.86966,-23.17902],[-45.87174,-23.17899],[-45.87241,-23.17729],[-45.87551,-23.17711],[-45.87481,-23.17975],[-45.87611,-23.18144],[-45.87724,-23.17847],[-45.88051,-23.17957],[-45.88424,-23.17859],[-45.88761,-23.18062],[-45.88696,-23.18226],[-45.88853,-23.18366],[-45.89555,-23.18425],[-45.90092,-23.18207],[-45.90209,-23.18051]]]}},{"type":"Feature","properties":{"setor":"12210"},"geometry":{"type":"Polygon","coordinates":[[[-45.89555,-23.18425],[-45.88853,-23.18366],[-45.88696,-23.18226],[-45.88761,-23.18062],[-45.88424,-23.17859],[-45.88051,-23.17957],[-45.87724,-23.17847],[-45.87611,-23.18144],[-45.87699,-23.182],[-45.8775,-23.18647],[-45.88137,-23.18809],[-45.88326,-23.19063],[-45.88544,-23.18912],[-45.88535,-23.18648],[-45.88622,-23.18611],[-45.88653,-23.18789],[-45.89555,-23.18425]]]}},{"type":"Feature","properties":{"setor":"12211"},"geometry":{"type":"Polygon","coordinates":[[[-45.90469,-23.17761],[-45.90252,-23.17199],[-45.90444,-23.16501],[-45.90359,-23.16322],[-45.89727,-23.16366],[-45.89632,-23.16134],[-45.89694,-23.16019],[-45.89968,-23.16036],[-45.89679,-23.15856],[-45.90127,-23.15708],[-45.90103,-23.15458],[-45.89427,-23.15198],[-45.88712,-23.14452],[-45.88309,-23.14502],[-45.86825,-23.15431],[-45.87036,-23.15845],[-45.88372,-23.16966],[-45.88978,-23.17235],[-45.89163,-23.17219],[-45.90209,-23.18051],[-45.90469,-23.17761]]]}},{"type":"Feature","properties":{"setor":"12212"},"geometry":{"type":"MultiPolygon","coordinates":[[[[-45.88309,-23.14502],[-45.87831,-23.1147],[-45.86474,-23.12321],[-45.84892,-23.14155],[-45.8565,-23.14972],[-45.86825,-23.15431],[-45.88309,-23.14502]]],[[[-45.91531,-23.15785],[-45.91268,-23.15789],[-45.9115,-23.15498],[-45.90956,-23.15818],[-45.90349,-23.15664],[-45.90643,-23.15346],[-45.90396,-23.15306],[-45.90343,-23.15193],[-45.90488,-23.1507],[-45.90786,-23.15087],[-45.90693,-23.14611],[-45.89952,-23.14509],[-45.89831,-23.1517],[-45.89713,-23.1528],[-45.90102,-23.15458],[-45.90127,-23.15708],[-45.89679,-23.15856],[-45.89968,-23.16036],[-45.89645,-23.16073],[-45.89727,-23.16366],[-45.90359,-23.16322],[-45.90444,-23.16501],[-45.90673,-23.16352],[-45.9111,-23.1632],[-45.91204,-23.16264],[-45.91159,-23.16099],[-45.91507,-23.15955],[-45.91531,-23.15785]]],[[[-45.97961,-23.13221],[-45.97855,-23.11651],[-45.95952,-23.1156],[-45.93475,-23.12833],[-45.94889,-23.13799],[-45.97961,-23.13221]]]]}},{"type":"Feature","properties":{"setor":"12213"},"geometry":{"type":"MultiPolygon","coordinates":[[[[-45.85609,-23.11337],[-45.8505,-23.0875],[-45.85556,-23.07749],[-45.83706,-23.04764],[-45.80333,-23.08907],[-45.79941,-23.1015],[-45.79514,-23.10501],[-45.81193,-23.1193],[-45.82307,-23.12404],[-45.83283,-23.11291],[-45.85609,-23.11337]]],[[[-46.07123,-23.14591],[-45.99454,-23.07249],[-45.97855,-23.11651],[-45.9796,-23.13221],[-45.94889,-23.13799],[-45.93475,-23.12833],[-45.9311,-23.12896],[-45.92449,-23.12408],[-45.92465,-23.11757],[-45.9148,-23.10796],[-45.91637,-23.09344],[-45.88435,-23.10229],[-45.88446,-23.10664],[-45.89333,-23.11485],[-45.90486,-23.12189],[-45.90317,-23.13467],[-45.88712,-23.14452],[-45.89427,-23.15198],[-45.8964,-23.15285],[-45.89831,-23.1517],[-45.89952,-23.14509],[-45.90664,-23.14541],[-45.90786,-23.15087],[-45.90488,-23.1507],[-45.90343,-23.15193],[-45.90396,-23.15306],[-45.90643,-23.15346],[-45.90349,-23.15664],[-45.90956,-23.15818],[-45.9115,-23.15498],[-45.91268,-23.15789],[-45.91531,-23.15785],[-45.91507,-23.15955],[-45.91159,-23.16099],[-45.91204,-23.16264],[-45.90673,-23.16352],[-45.90444,-23.16501],[-45.90252,-23.17199],[-45.90469,-23.17761],[-45.91623,-23.17816],[-45.92708,-23.17601],[-45.93054,-23.16992],[-45.94363,-23.16974],[-45.9532,-23.16339],[-45.95708,-23.17025],[-45.96434,-23.17666],[-45.96815,-23.17814],[-45.9831,-23.17965],[-45.99267,-23.17876],[-46.00071,-23.15872],[-46.07123,-23.14591]]]]}},{"type":"Feature","properties":{"setor":"12214"},"geometry":{"type":"Polygon","coordinates":[[[-46.10719,-23.09563],[-46.10466,-23.08418],[-46.09422,-23.08407],[-46.09044,-23.07846],[-46.09139,-23.06581],[-46.07594,-23.03686],[-46.08222,-23.03356],[-46.08045,-23.02527],[-46.07061,-23.01397],[-46.07112,-23.00803],[-46.0663,-22.99444],[-46.07026,-22.99338],[-46.07068,-22.98875],[-46.08175,-22.98493],[-46.07705,-22.97716],[-46.06671,-22.97972],[-46.05758,-22.97182],[-45.98911,-23.00841],[-45.93786,-22.99925],[-45.92974,-23.01689],[-45.93226,-23.02045],[-45.92898,-23.02702],[-45.9319,-23.03038],[-45.92364,-23.03577],[-45.92168,-23.03442],[-45.9121,-23.05524],[-45.87558,-23.08719],[-45.88435,-23.10229],[-45.91636,-23.09344],[-45.9148,-23.10796],[-45.92465,-23.11757],[-45.92449,-23.12408],[-45.9311,-23.12896],[-45.93475,-23.12833],[-45.95952,-23.1156],[-45.93963,-23.10533],[-45.93109,-23.09231],[-45.96628,-23.06318],[-45.98816,-23.04003],[-45.99454,-23.07249],[-46.07123,-23.1459],[-46.00071,-23.15872],[-45.99267,-23.17876],[-45.99436,-23.18924],[-45.99754,-23.18624],[-46.00846,-23.19427],[-46.00724,-23.19953],[-46.01904,-23.19768],[-46.0197,-23.20227],[-46.0316,-23.19017],[-46.05227,-23.18818],[-46.05471,-23.18429],[-46.051,-23.17751],[-46.05359,-23.17574],[-46.06394,-23.17228],[-46.074,-23.17996],[-46.07701,-23.16932],[-46.09249,-23.17054],[-46.10113,-23.15895],[-46.09135,-23.14283],[-46.09723,-23.13698],[-46.09502,-23.13254],[-46.10068,-23.1254],[-46.09299,-23.11991],[-46.10356,-23.11702],[-46.09954,-23.10897],[-46.10719,-23.09563]]]}},{"type":"Feature","properties":{"setor":"12215"},"geometry":{"type":"Polygon","coordinates":[[[-45.8862,-23.19709],[-45.88414,-23.19629],[-45.88382,-23.19348],[-45.88243,-23.1921],[-45.88326,-23.19063],[-45.88137,-23.18809],[-45.8775,-23.18647],[-45.87699,-23.182],[-45.87481,-23.17975],[-45.87551,-23.17711],[-45.87241,-23.17729],[-45.87174,-23.17899],[-45.86891,-23.17847],[-45.86756,-23.18342],[-45.86404,-23.18569],[-45.86274,-23.19269],[-45.86625,-23.19285],[-45.86884,-23.19589],[-45.8709,-23.19509],[-45.87392,-23.19728],[-45.87427,-23.1998],[-45.87757,-23.20185],[-45.87809,-23.2057],[-45.88367,-23.20449],[-45.8862,-23.19709]]]}},{"type":"Feature","properties":{"setor":"12216"},"geometry":{"type":"Polygon","coordinates":[[[-45.958,-22.90766],[-45.93462,-22.8427],[-45.9243,-22.83136],[-45.92213,-22.82355],[-45.91222,-22.81611],[-45.90386,-22.81877],[-45.90834,-22.82894],[-45.90523,-22.8336],[-45.89356,-22.83871],[-45.89059,-22.84418],[-45.89365,-22.85663],[-45.88963,-22.85749],[-45.88858,-22.86389],[-45.95588,-22.9109],[-45.958,-22.90766]]]}},{"type":"Feature","properties":{"setor":"12220"},"geometry":{"type":"Polygon","coordinates":[[[-45.86943,-23.15712],[-45.86825,-23.15431],[-45.8576,-23.15044],[-45.85385,-23.17077],[-45.85105,-23.17372],[-45.84923,-23.17277],[-45.84889,-23.1747],[-45.84692,-23.17536],[-45.84773,-23.17829],[-45.84262,-23.18023],[-45.84488,-23.18181],[-45.84651,-23.19479],[-45.85818,-23.19413],[-45.86274,-23.19269],[-45.86404,-23.18569],[-45.86756,-23.18342],[-45.86891,-23.17847],[-45.8671,-23.17388],[-45.86943,-23.15712]]]}},{"type":"Feature","properties":{"setor":"12221"},"geometry":{"type":"MultiPolygon","coordinates":[[[[-45.82665,-23.12922],[-45.82307,-23.12404],[-45.81193,-23.1193],[-45.80276,-23.14319],[-45.80183,-23.1489],[-45.8031,-23.15127],[-45.80647,-23.15201],[-45.80773,-23.1513],[-45.82665,-23.12922]]],[[[-45.8576,-23.15044],[-45.84892,-23.14155],[-45.83499,-23.13812],[-45.82576,-23.15638],[-45.82645,-23.16257],[-45.83212,-23.1757],[-45.83504,-23.17543],[-45.84142,-23.18021],[-45.84773,-23.17829],[-45.84692,-23.17536],[-45.84889,-23.17471],[-45.84923,-23.17277],[-45.85105,-23.17372],[-45.85385,-23.17077],[-45.8576,-23.15044]]]]}},{"type":"Feature","properties":{"setor":"12223"},"geometry":{"type":"Polygon","coordinates":[[[-45.84651,-23.19479],[-45.84488,-23.18181],[-45.83828,-23.17728],[-45.83504,-23.17543],[-45.828,-23.17594],[-45.82692,-23.17724],[-45.82507,-23.17549],[-45.82282,-23.1767],[-45.822,-23.17487],[-45.81762,-23.17404],[-45.81741,-23.17574],[-45.81507,-23.1758],[-45.81497,-23.17835],[-45.81944,-23.18732],[-45.81939,-23.19073],[-45.82178,-23.1973],[-45.82591,-23.19981],[-45.83852,-23.19842],[-45.84651,-23.19479]]]}},{"type":"Feature","properties":{"setor":"12224"},"geometry":{"type":"Polygon","coordinates":[[[-45.8319,-23.17542],[-45.82645,-23.16257],[-45.82576,-23.15638],[-45.81908,-23.15915],[-45.8104,-23.16089],[-45.80825,-23.16582],[-45.80618,-23.16689],[-45.80666,-23.16893],[-45.80424,-23.16931],[-45.80271,-23.17128],[-45.8021,-23.17548],[-45.80031,-23.17435],[-45.79745,-23.17637],[-45.79809,-23.17899],[-45.80152,-23.17838],[-45.80303,-23.183],[-45.80696,-23.18667],[-45.81054,-23.18629],[-45.81939,-23.19073],[-45.81944,-23.18732],[-45.81497,-23.17835],[-45.81507,-23.1758],[-45.81741,-23.17574],[-45.81762,-23.17404],[-45.822,-23.17487],[-45.82282,-23.1767],[-45.82507,-23.17549],[-45.82675,-23.17723],[-45.828,-23.17594],[-45.8319,-23.17542]]]}},{"type":"Feature","properties":{"setor":"12225"},"geometry":{"type":"MultiPolygon","coordinates":[[[[-45.80696,-23.18667],[-45.80303,-23.183],[-45.80152,-23.17837],[-45.78982,-23.18013],[-45.78652,-23.1768],[-45.78299,-23.17797],[-45.77889,-23.17715],[-45.77745,-23.18183],[-45.75645,-23.17164],[-45.75209,-23.17752],[-45.75069,-23.19248],[-45.74736,-23.19872],[-45.74632,-23.19871],[-45.75701,-23.20219],[-45.76322,-23.19725],[-45.76894,-23.19947],[-45.77694,-23.19673],[-45.78016,-23.20061],[-45.78286,-23.20108],[-45.78827,-23.19762],[-45.79108,-23.20322],[-45.79858,-23.20525],[-45.80515,-23.19886],[-45.80383,-23.19538],[-45.80407,-23.18983],[-45.80696,-23.18667]]],[[[-45.81558,-23.27493],[-45.81426,-23.25631],[-45.81245,-23.25174],[-45.79979,-23.26573],[-45.78895,-23.28135],[-45.79349,-23.29185],[-45.80287,-23.29318],[-45.81558,-23.27493]]]]}},{"type":"Feature","properties":{"setor":"12226"},"geometry":{"type":"MultiPolygon","coordinates":[[[[-45.83878,-23.2223],[-45.83356,-23.21751],[-45.83013,-23.21589],[-45.82881,-23.21298],[-45.82685,-23.20008],[-45.82178,-23.1973],[-45.80515,-23.19886],[-45.79858,-23.20525],[-45.79108,-23.20322],[-45.78827,-23.19762],[-45.78286,-23.20108],[-45.78016,-23.20061],[-45.77695,-23.19673],[-45.76894,-23.19947],[-45.76322,-23.19725],[-45.75701,-23.20219],[-45.74632,-23.19871],[-45.74175,-23.19869],[-45.74011,-23.20224],[-45.73739,-23.2164],[-45.72075,-23.23811],[-45.73027,-23.23902],[-45.7363,-23.24673],[-45.74088,-23.24529],[-45.74833,-23.254],[-45.7535,-23.25313],[-45.75587,-23.25383],[-45.76044,-23.25022],[-45.78855,-23.24077],[-45.80181,-23.23522],[-45.80131,-23.22822],[-45.80348,-23.22105],[-45.80904,-23.22299],[-45.80761,-23.22944],[-45.80369,-23.23444],[-45.81198,-23.23622],[-45.81422,-23.2324],[-45.81727,-23.23114],[-45.81891,-23.2322],[-45.8225,-23.23071],[-45.82638,-23.23283],[-45.83153,-23.23225],[-45.83291,-23.23056],[-45.8347,-23.2305],[-45.83878,-23.2223]]],[[[-45.86474,-23.12321],[-45.85609,-23.11337],[-45.83283,-23.11291],[-45.82307,-23.12404],[-45.83499,-23.13812],[-45.84892,-23.14155],[-45.86474,-23.12321]]],[[[-45.90486,-23.12189],[-45.89333,-23.11485],[-45.88446,-23.10664],[-45.87831,-23.1147],[-45.88309,-23.14502],[-45.88712,-23.14452],[-45.90317,-23.13467],[-45.90486,-23.12189]]]]}},{"type":"Feature","properties":{"setor":"12227"},"geometry":{"type":"MultiPolygon","coordinates":[[[[-45.87204,-23.19643],[-45.8709,-23.19509],[-45.86884,-23.19589],[-45.8669,-23.19316],[-45.86408,-23.19256],[-45.85818,-23.19413],[-45.84666,-23.19475],[-45.83852,-23.19842],[-45.83159,-23.19851],[-45.82685,-23.20008],[-45.82881,-23.21298],[-45.83013,-23.21589],[-45.83356,-23.21751],[-45.83878,-23.2223],[-45.84601,-23.22401],[-45.84595,-23.22915],[-45.84225,-23.2347],[-45.85144,-23.24374],[-45.86433,-23.23627],[-45.86377,-23.2312],[-45.86826,-23.21618],[-45.86419,-23.20666],[-45.86523,-23.20346],[-45.87125,-23.20298],[-45.86735,-23.19792],[-45.87204,-23.19643]]],[[[-45.92168,-23.03442],[-45.88491,-23.00916],[-45.88572,-23.01784],[-45.87916,-23.02795],[-45.85739,-23.03776],[-45.85235,-23.04472],[-45.84752,-23.04532],[-45.84213,-23.04121],[-45.83706,-23.04764],[-45.85556,-23.07749],[-45.87558,-23.08719],[-45.9121,-23.05524],[-45.92168,-23.03442]]],[[[-45.92974,-23.01689],[-45.93786,-22.99925],[-45.89135,-22.97491],[-45.89541,-22.98622],[-45.91763,-23.00032],[-45.92974,-23.01689]]]]}},{"type":"Feature","properties":{"setor":"12228"},"geometry":{"type":"Polygon","coordinates":[[[-45.86692,-23.24956],[-45.86349,-23.23736],[-45.85144,-23.24374],[-45.84225,-23.2347],[-45.84595,-23.22915],[-45.84601,-23.22401],[-45.84438,-23.22315],[-45.83878,-23.2223],[-45.8347,-23.2305],[-45.83291,-23.23056],[-45.83153,-23.23225],[-45.82639,-23.23283],[-45.8225,-23.23071],[-45.81891,-23.2322],[-45.81727,-23.23114],[-45.81422,-23.2324],[-45.81198,-23.23622],[-45.80369,-23.23444],[-45.80761,-23.22944],[-45.80904,-23.22299],[-45.80348,-23.22105],[-45.80131,-23.22822],[-45.8022,-23.23477],[-45.78855,-23.24077],[-45.80087,-23.24882],[-45.78013,-23.27311],[-45.78895,-23.28135],[-45.79979,-23.26573],[-45.81245,-23.25174],[-45.81426,-23.25631],[-45.81558,-23.27493],[-45.82408,-23.26709],[-45.82931,-23.26541],[-45.84069,-23.26582],[-45.847,-23.2674],[-45.85273,-23.25859],[-45.85579,-23.25822],[-45.86692,-23.24956]]]}},{"type":"Feature","properties":{"setor":"12229"},"geometry":{"type":"Polygon","coordinates":[[[-45.87993,-23.26486],[-45.87779,-23.26083],[-45.87341,-23.26375],[-45.87019,-23.25984],[-45.86799,-23.26116],[-45.86223,-23.26077],[-45.85579,-23.25822],[-45.85273,-23.25859],[-45.847,-23.2674],[-45.84069,-23.26582],[-45.82931,-23.26541],[-45.82408,-23.26709],[-45.81558,-23.27493],[-45.80287,-23.29318],[-45.81116,-23.28875],[-45.82332,-23.29543],[-45.83463,-23.2933],[-45.83482,-23.29726],[-45.8473,-23.30669],[-45.8593,-23.30488],[-45.86916,-23.29793],[-45.87681,-23.29923],[-45.87729,-23.2834],[-45.87957,-23.27257],[-45.8783,-23.26791],[-45.87993,-23.26486]]]}},{"type":"Feature","properties":{"setor":"12230"},"geometry":{"type":"Polygon","coordinates":[[[-45.90295,-23.22024],[-45.89824,-23.21499],[-45.89496,-23.21664],[-45.88766,-23.21796],[-45.88557,-23.21981],[-45.88563,-23.22136],[-45.88055,-23.22414],[-45.88012,-23.22716],[-45.88151,-23.2297],[-45.88056,-23.2334],[-45.88175,-23.23655],[-45.88592,-23.23527],[-45.89084,-23.23625],[-45.89436,-23.23557],[-45.89148,-23.23075],[-45.89428,-23.23067],[-45.894,-23.228],[-45.89633,-23.22525],[-45.89771,-23.22061],[-45.8984,-23.22001],[-45.90181,-23.22294],[-45.90295,-23.22024]]]}},{"type":"Feature","properties":{"setor":"12231"},"geometry":{"type":"Polygon","coordinates":[[[-45.89293,-23.21685],[-45.89155,-23.21292],[-45.89005,-23.21254],[-45.88977,-23.20992],[-45.88623,-23.20768],[-45.88537,-23.20571],[-45.88125,-23.20435],[-45.87809,-23.2057],[-45.87757,-23.20185],[-45.87427,-23.1998],[-45.87392,-23.19728],[-45.87204,-23.19643],[-45.86823,-23.1971],[-45.86735,-23.19792],[-45.87148,-23.20216],[-45.87125,-23.20298],[-45.86523,-23.20346],[-45.86419,-23.20666],[-45.86825,-23.21618],[-45.86377,-23.2312],[-45.86433,-23.23627],[-45.86756,-23.23646],[-45.87615,-23.241],[-45.87888,-23.2397],[-45.88175,-23.23655],[-45.88056,-23.2334],[-45.88151,-23.2297],[-45.88012,-23.22716],[-45.88056,-23.22414],[-45.88563,-23.22136],[-45.88557,-23.21981],[-45.88766,-23.21796],[-45.89293,-23.21685]]]}},{"type":"Feature","properties":{"setor":"12232"},"geometry":{"type":"MultiPolygon","coordinates":[[[[-45.80088,-23.24882],[-45.78855,-23.24077],[-45.76044,-23.25022],[-45.75587,-23.25383],[-45.75878,-23.25468],[-45.7632,-23.25106],[-45.76826,-23.26064],[-45.77447,-23.2609],[-45.7758,-23.26907],[-45.78013,-23.27311],[-45.80088,-23.24882]]],[[[-45.89773,-23.27594],[-45.8953,-23.27541],[-45.89669,-23.2734],[-45.89553,-23.27237],[-45.89227,-23.27413],[-45.89183,-23.27292],[-45.88908,-23.27273],[-45.88779,-23.27076],[-45.88648,-23.26393],[-45.88763,-23.2625],[-45.88589,-23.25974],[-45.88782,-23.25868],[-45.88577,-23.25718],[-45.8863,-23.25483],[-45.88498,-23.24743],[-45.87779,-23.24622],[-45.87615,-23.241],[-45.86756,-23.23646],[-45.86433,-23.23627],[-45.86349,-23.23736],[-45.86692,-23.24956],[-45.85579,-23.25822],[-45.86223,-23.26077],[-45.86799,-23.26116],[-45.87019,-23.25984],[-45.87341,-23.26375],[-45.87808,-23.26106],[-45.87993,-23.26486],[-45.8783,-23.26791],[-45.87957,-23.27257],[-45.87781,-23.28429],[-45.88519,-23.28441],[-45.89245,-23.28245],[-45.89387,-23.27696],[-45.89773,-23.27594]]]]}},{"type":"Feature","properties":{"setor":"12233"},"geometry":{"type":"Polygon","coordinates":[[[-45.89469,-23.236],[-45.88592,-23.23527],[-45.88175,-23.23655],[-45.87615,-23.241],[-45.87779,-23.24622],[-45.88498,-23.24743],[-45.8863,-23.25483],[-45.88577,-23.25718],[-45.88782,-23.25868],[-45.88589,-23.25974],[-45.88763,-23.2625],[-45.88648,-23.26393],[-45.88781,-23.26833],[-45.89437,-23.25949],[-45.89271,-23.25264],[-45.88981,-23.2511],[-45.88907,-23.24798],[-45.89469,-23.236]]]}},{"type":"Feature","properties":{"setor":"12234"},"geometry":{"type":"Polygon","coordinates":[[[-45.91232,-23.27673],[-45.90635,-23.27615],[-45.9013,-23.27419],[-45.89888,-23.27674],[-45.89786,-23.27592],[-45.89388,-23.27694],[-45.89245,-23.28244],[-45.88519,-23.28441],[-45.87781,-23.28429],[-45.87681,-23.29923],[-45.90399,-23.29458],[-45.90829,-23.29002],[-45.91232,-23.27673]]]}},{"type":"Feature","properties":{"setor":"12235"},"geometry":{"type":"Polygon","coordinates":[[[-45.91289,-23.24978],[-45.91182,-23.24598],[-45.91108,-23.24594],[-45.91197,-23.24781],[-45.91021,-23.24635],[-45.9073,-23.23964],[-45.90715,-23.2379],[-45.91035,-23.23922],[-45.91062,-23.23846],[-45.90947,-23.2348],[-45.90982,-23.22784],[-45.90822,-23.2276],[-45.90664,-23.22382],[-45.90357,-23.22393],[-45.8984,-23.22001],[-45.89633,-23.22525],[-45.894,-23.228],[-45.89428,-23.23067],[-45.89148,-23.23075],[-45.89283,-23.2338],[-45.89469,-23.236],[-45.90008,-23.23744],[-45.90508,-23.24161],[-45.90586,-23.24376],[-45.90743,-23.24373],[-45.90713,-23.24604],[-45.90868,-23.24769],[-45.90718,-23.24935],[-45.90853,-23.2518],[-45.90961,-23.24904],[-45.91289,-23.24978]]]}},{"type":"Feature","properties":{"setor":"12236"},"geometry":{"type":"Polygon","coordinates":[[[-45.91102,-23.25781],[-45.90889,-23.25609],[-45.90946,-23.25408],[-45.90783,-23.25256],[-45.90834,-23.25072],[-45.90718,-23.24935],[-45.90868,-23.24769],[-45.90713,-23.24604],[-45.90743,-23.24373],[-45.90586,-23.24376],[-45.90508,-23.24161],[-45.90008,-23.23744],[-45.89469,-23.236],[-45.88907,-23.24798],[-45.8898,-23.2511],[-45.89271,-23.25264],[-45.89404,-23.25559],[-45.89353,-23.25818],[-45.89437,-23.25949],[-45.89202,-23.26235],[-45.8927,-23.26433],[-45.89548,-23.26513],[-45.89617,-23.26647],[-45.90121,-23.26741],[-45.90167,-23.26166],[-45.90322,-23.26236],[-45.90438,-23.261],[-45.90949,-23.2597],[-45.91102,-23.25781]]]}},{"type":"Feature","properties":{"setor":"12237"},"geometry":{"type":"Polygon","coordinates":[[[-45.92271,-23.24555],[-45.91896,-23.23988],[-45.92005,-23.23568],[-45.91558,-23.23478],[-45.91475,-23.23226],[-45.90967,-23.23299],[-45.91035,-23.23922],[-45.90715,-23.2379],[-45.91021,-23.24635],[-45.91197,-23.24781],[-45.91108,-23.24594],[-45.91182,-23.24598],[-45.9129,-23.24843],[-45.91289,-23.24978],[-45.91096,-23.25003],[-45.91087,-23.25147],[-45.91462,-23.25298],[-45.91645,-23.25736],[-45.91868,-23.2583],[-45.92013,-23.25752],[-45.92004,-23.25106],[-45.92271,-23.24555]]]}},{"type":"Feature","properties":{"setor":"12238"},"geometry":{"type":"Polygon","coordinates":[[[-45.94235,-23.26037],[-45.94038,-23.25357],[-45.9416,-23.25244],[-45.93958,-23.24941],[-45.93768,-23.24821],[-45.93535,-23.24987],[-45.93274,-23.24936],[-45.93163,-23.24823],[-45.93152,-23.24511],[-45.92598,-23.24218],[-45.9263,-23.239],[-45.92108,-23.23603],[-45.91995,-23.23634],[-45.91896,-23.23988],[-45.92271,-23.24555],[-45.92004,-23.25106],[-45.91987,-23.25813],[-45.91645,-23.25736],[-45.91462,-23.25298],[-45.91197,-23.25246],[-45.91006,-23.24911],[-45.90783,-23.25256],[-45.90946,-23.25408],[-45.90888,-23.25609],[-45.91097,-23.2577],[-45.91037,-23.25914],[-45.91157,-23.25991],[-45.91078,-23.26202],[-45.91196,-23.26412],[-45.91082,-23.26607],[-45.91293,-23.27556],[-45.92142,-23.26303],[-45.93152,-23.25674],[-45.94235,-23.26037]]]}},{"type":"Feature","properties":{"setor":"12239"},"geometry":{"type":"MultiPolygon","coordinates":[[[[-45.77571,-23.10741],[-45.7747,-23.10478],[-45.77085,-23.11471],[-45.76614,-23.11602],[-45.76484,-23.11054],[-45.76076,-23.11432],[-45.75684,-23.11113],[-45.75193,-23.1174],[-45.75619,-23.11867],[-45.75978,-23.12719],[-45.7579,-23.13086],[-45.7726,-23.11273],[-45.77571,-23.10741]]],[[[-45.91293,-23.27556],[-45.91082,-23.26607],[-45.91196,-23.26412],[-45.91078,-23.26202],[-45.91164,-23.26036],[-45.91037,-23.25914],[-45.90438,-23.261],[-45.90322,-23.26236],[-45.90167,-23.26166],[-45.90121,-23.26741],[-45.89617,-23.26647],[-45.89217,-23.26354],[-45.89008,-23.26475],[-45.88781,-23.26833],[-45.88908,-23.27273],[-45.89183,-23.27292],[-45.89227,-23.27413],[-45.89553,-23.27237],[-45.89669,-23.2734],[-45.8953,-23.27541],[-45.89579,-23.27619],[-45.89666,-23.27524],[-45.89888,-23.27674],[-45.9013,-23.27419],[-45.90635,-23.27615],[-45.91232,-23.27673],[-45.91293,-23.27556]]]]}},{"type":"Feature","properties":{"setor":"12240"},"geometry":{"type":"Polygon","coordinates":[[[-45.93207,-23.21623],[-45.92484,-23.21028],[-45.91706,-23.21493],[-45.91312,-23.21831],[-45.91061,-23.22282],[-45.91001,-23.23273],[-45.91475,-23.23226],[-45.91558,-23.23478],[-45.92005,-23.23568],[-45.91991,-23.23102],[-45.92323,-23.22879],[-45.92391,-23.22668],[-45.92148,-23.22426],[-45.92171,-23.22247],[-45.93207,-23.21623]]]}},{"type":"Feature","properties":{"setor":"12241"},"geometry":{"type":"MultiPolygon","coordinates":[[[[-45.77563,-23.14629],[-45.77342,-23.14324],[-45.77049,-23.14206],[-45.75728,-23.15567],[-45.75684,-23.15887],[-45.77336,-23.15604],[-45.77533,-23.15229],[-45.77563,-23.14629]]],[[[-45.82178,-23.1973],[-45.81939,-23.19073],[-45.81054,-23.18629],[-45.80696,-23.18667],[-45.80407,-23.18983],[-45.80383,-23.19538],[-45.80515,-23.19886],[-45.82178,-23.1973]]],[[[-45.97091,-23.2329],[-45.96475,-23.23111],[-45.96509,-23.22906],[-45.94875,-23.22562],[-45.94255,-23.22044],[-45.93207,-23.21623],[-45.92171,-23.22246],[-45.92148,-23.22426],[-45.92391,-23.22668],[-45.92323,-23.22879],[-45.91981,-23.23164],[-45.92021,-23.23591],[-45.9263,-23.239],[-45.92598,-23.24218],[-45.93152,-23.24511],[-45.93163,-23.24823],[-45.93274,-23.24936],[-45.93535,-23.24987],[-45.93768,-23.24821],[-45.93958,-23.24941],[-45.9416,-23.25244],[-45.94038,-23.25357],[-45.94235,-23.26037],[-45.94904,-23.25871],[-45.96345,-23.24504],[-45.96491,-23.23897],[-45.96374,-23.23624],[-45.97091,-23.2329]]]]}},{"type":"Feature","properties":{"setor":"12242"},"geometry":{"type":"Polygon","coordinates":[[[-45.92484,-23.21028],[-45.9226,-23.20133],[-45.91739,-23.19888],[-45.91494,-23.19483],[-45.91266,-23.19535],[-45.90829,-23.19292],[-45.90092,-23.18207],[-45.89633,-23.18415],[-45.89508,-23.19181],[-45.89788,-23.19648],[-45.89767,-23.19807],[-45.90037,-23.19883],[-45.90215,-23.20277],[-45.90594,-23.20386],[-45.90413,-23.20884],[-45.90099,-23.20809],[-45.90049,-23.20908],[-45.90267,-23.21048],[-45.90277,-23.21231],[-45.90963,-23.21178],[-45.91174,-23.20994],[-45.91706,-23.21493],[-45.92484,-23.21028]]]}},{"type":"Feature","properties":{"setor":"12243"},"geometry":{"type":"Polygon","coordinates":[[[-45.90594,-23.20386],[-45.90215,-23.20277],[-45.90037,-23.19883],[-45.89768,-23.19806],[-45.89788,-23.19648],[-45.89508,-23.19181],[-45.896,-23.18605],[-45.89042,-23.19398],[-45.89205,-23.19708],[-45.89088,-23.19969],[-45.89313,-23.20085],[-45.89439,-23.20339],[-45.89538,-23.21087],[-45.89654,-23.21143],[-45.90099,-23.20809],[-45.90413,-23.20884],[-45.90594,-23.20386]]]}},{"type":"Feature","properties":{"setor":"12244"},"geometry":{"type":"Polygon","coordinates":[[[-45.99436,-23.18924],[-45.99267,-23.17876],[-45.9831,-23.17965],[-45.96815,-23.17814],[-45.96434,-23.17666],[-45.95708,-23.17025],[-45.9532,-23.16339],[-45.94363,-23.16974],[-45.93054,-23.16992],[-45.92708,-23.17601],[-45.91623,-23.17816],[-45.90469,-23.17761],[-45.90092,-23.18207],[-45.90829,-23.19292],[-45.91266,-23.19535],[-45.91494,-23.19483],[-45.91739,-23.19888],[-45.9226,-23.20133],[-45.92484,-23.21028],[-45.93207,-23.21623],[-45.94255,-23.22044],[-45.94875,-23.22562],[-45.96509,-23.22906],[-45.96569,-23.22545],[-45.96108,-23.22498],[-45.95979,-23.2194],[-45.95505,-23.22093],[-45.95457,-23.21667],[-45.94947,-23.21574],[-45.94802,-23.21177],[-45.95459,-23.20395],[-45.96233,-23.20573],[-45.96514,-23.20331],[-45.96834,-23.20718],[-45.96814,-23.19884],[-45.9801,-23.20481],[-45.98107,-23.20177],[-45.99436,-23.18924]]]}},{"type":"Feature","properties":{"setor":"12245"},"geometry":{"type":"Polygon","coordinates":[[[-45.89633,-23.18415],[-45.88796,-23.18656],[-45.88653,-23.18789],[-45.88622,-23.18611],[-45.88535,-23.18648],[-45.88544,-23.18912],[-45.88243,-23.1921],[-45.88382,-23.19348],[-45.88414,-23.19629],[-45.8862,-23.19709],[-45.88367,-23.20449],[-45.88977,-23.20992],[-45.89005,-23.21254],[-45.89155,-23.21292],[-45.89538,-23.21087],[-45.8953,-23.20824],[-45.89336,-23.2011],[-45.89088,-23.19969],[-45.89205,-23.19708],[-45.89042,-23.19398],[-45.89633,-23.18415]]]}},{"type":"Feature","properties":{"setor":"12246"},"geometry":{"type":"Polygon","coordinates":[[[-45.91706,-23.21493],[-45.91174,-23.20994],[-45.90963,-23.21178],[-45.90712,-23.21142],[-45.90589,-23.21276],[-45.90277,-23.21231],[-45.90267,-23.21048],[-45.90048,-23.20921],[-45.89155,-23.21292],[-45.89293,-23.21685],[-45.89827,-23.215],[-45.90295,-23.22024],[-45.90185,-23.22311],[-45.90664,-23.22382],[-45.90822,-23.2276],[-45.90982,-23.22784],[-45.91082,-23.22652],[-45.91061,-23.22282],[-45.91312,-23.21831],[-45.91706,-23.21493]]]}},{"type":"Feature","properties":{"setor":"12247"},"geometry":{"type":"MultiPolygon","coordinates":[[[[-45.83499,-23.13812],[-45.82665,-23.12922],[-45.80773,-23.1513],[-45.80647,-23.15201],[-45.8031,-23.15126],[-45.80183,-23.1489],[-45.80276,-23.14319],[-45.81193,-23.1193],[-45.79514,-23.10501],[-45.79239,-23.10727],[-45.78783,-23.10217],[-45.78697,-23.11131],[-45.77921,-23.10985],[-45.77865,-23.11511],[-45.77571,-23.10741],[-45.75586,-23.13485],[-45.75962,-23.15024],[-45.75728,-23.15567],[-45.77049,-23.14206],[-45.77342,-23.14324],[-45.77563,-23.14629],[-45.77533,-23.15229],[-45.77336,-23.15604],[-45.75684,-23.15887],[-45.75906,-23.16488],[-45.77721,-23.16679],[-45.77959,-23.16361],[-45.78099,-23.16774],[-45.78198,-23.16797],[-45.78469,-23.16434],[-45.7866,-23.15796],[-45.78808,-23.15915],[-45.79097,-23.16571],[-45.79271,-23.16743],[-45.79548,-23.16738],[-45.79753,-23.16679],[-45.80053,-23.16001],[-45.80557,-23.1591],[-45.8104,-23.16089],[-45.81908,-23.15915],[-45.82576,-23.15638],[-45.83499,-23.13812]]],[[[-45.88446,-23.10664],[-45.88435,-23.10229],[-45.87558,-23.08719],[-45.85556,-23.07749],[-45.8505,-23.0875],[-45.85609,-23.11337],[-45.86474,-23.12321],[-45.87831,-23.1147],[-45.88446,-23.10664]]],[[[-45.99454,-23.07249],[-45.98816,-23.04002],[-45.96628,-23.06318],[-45.93109,-23.09231],[-45.93963,-23.10533],[-45.94411,-23.10784],[-45.95952,-23.1156],[-45.97855,-23.11651],[-45.99454,-23.07249]]]]}},{"type":"Feature","properties":{"setor":"12248"},"geometry":{"type":"Polygon","coordinates":[[[-45.8104,-23.16089],[-45.80557,-23.1591],[-45.80053,-23.16001],[-45.79753,-23.16679],[-45.79271,-23.16743],[-45.7866,-23.15796],[-45.78469,-23.16434],[-45.78198,-23.16797],[-45.78099,-23.16774],[-45.77959,-23.16361],[-45.77721,-23.16679],[-45.75906,-23.16488],[-45.75969,-23.16659],[-45.75645,-23.17164],[-45.77745,-23.18183],[-45.77889,-23.17715],[-45.78299,-23.17797],[-45.78652,-23.1768],[-45.78982,-23.18013],[-45.79464,-23.1801],[-45.79809,-23.17899],[-45.79745,-23.17637],[-45.80031,-23.17435],[-45.8021,-23.17548],[-45.80271,-23.17128],[-45.80424,-23.16931],[-45.80666,-23.16893],[-45.80618,-23.16689],[-45.80824,-23.16582],[-45.8104,-23.16089]]]}},{"type":"Feature","properties":{"setor":"12249"},"geometry":{"type":"Polygon","coordinates":[[[-46.05758,-22.97182],[-46.05068,-22.96586],[-46.05086,-22.9398],[-46.04106,-22.92115],[-46.04417,-22.9057],[-46.0499,-22.90287],[-46.05133,-22.89584],[-46.02688,-22.88418],[-46.008,-22.88873],[-46.00124,-22.87931],[-45.99164,-22.877],[-45.99191,-22.86911],[-45.97605,-22.86495],[-45.96439,-22.85508],[-45.95975,-22.85714],[-45.95586,-22.8498],[-45.94996,-22.8454],[-45.9365,-22.84476],[-45.93462,-22.8427],[-45.95783,-22.90618],[-45.958,-22.90766],[-45.95588,-22.9109],[-45.88858,-22.86389],[-45.88748,-22.87063],[-45.88847,-22.87533],[-45.87858,-22.87498],[-45.87058,-22.87081],[-45.86973,-22.88145],[-45.86329,-22.89222],[-45.87443,-22.9037],[-45.87717,-22.91423],[-45.87713,-22.92079],[-45.8839,-22.9296],[-45.89533,-22.9339],[-45.89397,-22.94041],[-45.88318,-22.95071],[-45.8875,-22.95726],[-45.88071,-22.96578],[-45.89018,-22.97164],[-45.89135,-22.97491],[-45.93786,-22.99925],[-45.98911,-23.00841],[-46.05758,-22.97182]]]}}]}